"icao_aerolinea";"iata";"fecha";"hora";"vuelo";"origen";"estado";"franja_horaria";"numero_vuelo";"id";"name";"city";"country";"icao_aeropuerto";"latitude";"longitude";"altitude";"timezone";"tz";"name_aerolinea";"country_aerolinea"
"AEA";"MAD";"2025-11-09";"16:15";"AEA4065";"MADRID-BARAJAS ADOLFO SUÁREZ (MAD)";"No informado";"Tarde";"4065";"1229";"Adolfo Suárez Madrid–Barajas Airport";"Madrid";"Spain";"LEMD";"40.471926";"-3.56264";"1998";"1";"Europe/Madrid";"Air Europa";"Spain"
"AEA";"PMI";"2025-11-09";"11:22";"AEA4007";"PALMA DE MALLORCA (PMI)";"Entrega equip.";"Mañana";"4007";"3998";"Palma De Mallorca Airport";"Palma de Mallorca";"Spain";"LEPA";"39.551700592";"2.73881006241";"27";"1";"Europe/Madrid";"Air Europa";"Spain"
"AEA";"PMI";"2025-11-10";"11:35";"AEA4007";"PALMA DE MALLORCA (PMI)";"No informado";"Mañana";"4007";"3998";"Palma De Mallorca Airport";"Palma de Mallorca";"Spain";"LEPA";"39.551700592";"2.73881006241";"27";"1";"Europe/Madrid";"Air Europa";"Spain"
"AEA";"MAD";"2025-11-10";"08:05";"AEA4063";"MADRID-BARAJAS ADOLFO SUÁREZ (MAD)";"No informado";"Mañana";"4063";"1229";"Adolfo Suárez Madrid–Barajas Airport";"Madrid";"Spain";"LEMD";"40.471926";"-3.56264";"1998";"1";"Europe/Madrid";"Air Europa";"Spain"
"AEA";"PMI";"2025-11-09";"19:45";"AEA4011";"PALMA DE MALLORCA (PMI)";"No informado";"Noche";"4011";"3998";"Palma De Mallorca Airport";"Palma de Mallorca";"Spain";"LEPA";"39.551700592";"2.73881006241";"27";"1";"Europe/Madrid";"Air Europa";"Spain"
"AFR";"CDG";"2025-11-09";"23:10";"AFR1492";"PARIS /CHARLES DE GAULLE (CDG)";"No informado";"Noche";"1492";"1382";"Charles de Gaulle International Airport";"Paris";"France";"LFPG";"49.012798";"2.55";"392";"1";"Europe/Paris";"Air France";"France"
"AFR";"CDG";"2025-11-10";"12:00";"AFR1416";"PARIS /CHARLES DE GAULLE (CDG)";"No informado";"Tarde";"1416";"1382";"Charles de Gaulle International Airport";"Paris";"France";"LFPG";"49.012798";"2.55";"392";"1";"Europe/Paris";"Air France";"France"
"AFR";"CDG";"2025-11-09";"11:55";"AFR1416";"PARIS /CHARLES DE GAULLE (CDG)";"En vuelo";"Mañana";"1416";"1382";"Charles de Gaulle International Airport";"Paris";"France";"LFPG";"49.012798";"2.55";"392";"1";"Europe/Paris";"Air France";"France"
"AFR";"CDG";"2025-11-09";"17:55";"AFR1420";"PARIS /CHARLES DE GAULLE (CDG)";"No informado";"Tarde";"1420";"1382";"Charles de Gaulle International Airport";"Paris";"France";"LFPG";"49.012798";"2.55";"392";"1";"Europe/Paris";"Air France";"France"
"ANE";"GRX";"2025-11-09";"21:40";"ANE8052";"(GRX)";"No informado";"Noche";"8052";"1223";"Federico Garcia Lorca Airport";"Granada";"Spain";"LEGR";"37.18870162963867";"-3.777359962463379";"1860";"1";"Europe/Madrid";NA;NA
"ASL";"BEG";"2025-11-13";"09:00";"ASL590";"BELGRADO (BEG)";"No informado";"Mañana";"590";"1739";"Belgrade Nikola Tesla Airport";"Belgrade";"Serbia";"LYBE";"44.8184013367";"20.3090991974";"335";"1";"Europe/Belgrade";"Spurling Aviation";"United States"
"ASL";"BEG";"2025-11-13";"09:00";"ASL590";"BELGRADO (BEG)";"No informado";"Mañana";"590";"1739";"Belgrade Nikola Tesla Airport";"Belgrade";"Serbia";"LYBE";"44.8184013367";"20.3090991974";"335";"1";"Europe/Belgrade";"Air Serbia";"Serbia"
"ASL";"BEG";"2025-11-20";"20:00";"ASL9030";"BELGRADO (BEG)";"No informado";"Noche";"9030";"1739";"Belgrade Nikola Tesla Airport";"Belgrade";"Serbia";"LYBE";"44.8184013367";"20.3090991974";"335";"1";"Europe/Belgrade";"Spurling Aviation";"United States"
"ASL";"BEG";"2025-11-20";"20:00";"ASL9030";"BELGRADO (BEG)";"No informado";"Noche";"9030";"1739";"Belgrade Nikola Tesla Airport";"Belgrade";"Serbia";"LYBE";"44.8184013367";"20.3090991974";"335";"1";"Europe/Belgrade";"Air Serbia";"Serbia"
"ASL";"BEG";"2025-11-09";"20:10";"ASL592";"BELGRADO (BEG)";"No informado";"Noche";"592";"1739";"Belgrade Nikola Tesla Airport";"Belgrade";"Serbia";"LYBE";"44.8184013367";"20.3090991974";"335";"1";"Europe/Belgrade";"Spurling Aviation";"United States"
"ASL";"BEG";"2025-11-09";"20:10";"ASL592";"BELGRADO (BEG)";"No informado";"Noche";"592";"1739";"Belgrade Nikola Tesla Airport";"Belgrade";"Serbia";"LYBE";"44.8184013367";"20.3090991974";"335";"1";"Europe/Belgrade";"Air Serbia";"Serbia"
"AUA";"VIE";"2025-11-11";"12:40";"AUA431";"VIENA (VIE)";"No informado";"Tarde";"431";"1613";"Vienna International Airport";"Vienna";"Austria";"LOWW";"48.110298156738";"16.569700241089";"600";"1";"Europe/Vienna";"Austrian Airlines";"Austria"
"AUA";"VIE";"2025-11-09";"12:30";"AUA431";"VIENA (VIE)";"En vuelo";"Tarde";"431";"1613";"Vienna International Airport";"Vienna";"Austria";"LOWW";"48.110298156738";"16.569700241089";"600";"1";"Europe/Vienna";"Austrian Airlines";"Austria"
"AZU";"LIS";"2025-11-12";"11:15";"AZU7351";"LISBOA (LIS)";"No informado";"Mañana";"7351";"1638";"Humberto Delgado Airport (Lisbon Portela Airport)";"Lisbon";"Portugal";"LPPT";"38.7813";"-9.13592";"374";"0";"Europe/Lisbon";"Azul";"Brazil"
"BAW";"LHR";"2025-11-13";"11:15";"BAW410";"LONDRES / HEATHROW (LHR)";"No informado";"Mañana";"410";"507";"London Heathrow Airport";"London";"United Kingdom";"EGLL";"51.4706";"-0.461941";"83";"0";"Europe/London";"British Airways";"United Kingdom"
"BAW";"LHR";"2025-11-11";"16:10";"BAW410";"LONDRES / HEATHROW (LHR)";"No informado";"Tarde";"410";"507";"London Heathrow Airport";"London";"United Kingdom";"EGLL";"51.4706";"-0.461941";"83";"0";"Europe/London";"British Airways";"United Kingdom"
"BAW";"LHR";"2025-11-14";"20:15";"BAW410";"LONDRES / HEATHROW (LHR)";"No informado";"Noche";"410";"507";"London Heathrow Airport";"London";"United Kingdom";"EGLL";"51.4706";"-0.461941";"83";"0";"Europe/London";"British Airways";"United Kingdom"
"BAW";"LHR";"2025-11-10";"15:50";"BAW410";"LONDRES / HEATHROW (LHR)";"No informado";"Tarde";"410";"507";"London Heathrow Airport";"London";"United Kingdom";"EGLL";"51.4706";"-0.461941";"83";"0";"Europe/London";"British Airways";"United Kingdom"
"BAW";"LHR";"2025-11-09";"19:35";"BAW410";"LONDRES / HEATHROW (LHR)";"No informado";"Noche";"410";"507";"London Heathrow Airport";"London";"United Kingdom";"EGLL";"51.4706";"-0.461941";"83";"0";"Europe/London";"British Airways";"United Kingdom"
"BAW";"LHR";"2025-11-15";"17:20";"BAW410";"LONDRES / HEATHROW (LHR)";"No informado";"Tarde";"410";"507";"London Heathrow Airport";"London";"United Kingdom";"EGLL";"51.4706";"-0.461941";"83";"0";"Europe/London";"British Airways";"United Kingdom"
"BEL";"BRU";"2025-11-09";"12:00";"BEL3751";"BRUSELAS (BRU)";"En vuelo";"Tarde";"3751";"302";"Brussels Airport";"Brussels";"Belgium";"EBBR";"50.901401519800004";"4.48443984985";"184";"1";"Europe/Brussels";NA;NA
"BEL";"BRU";"2025-11-15";"19:20";"BEL3751";"BRUSELAS (BRU)";"No informado";"Noche";"3751";"302";"Brussels Airport";"Brussels";"Belgium";"EBBR";"50.901401519800004";"4.48443984985";"184";"1";"Europe/Brussels";NA;NA
"BEL";"BRU";"2025-11-14";"12:55";"BEL3751";"BRUSELAS (BRU)";"No informado";"Tarde";"3751";"302";"Brussels Airport";"Brussels";"Belgium";"EBBR";"50.901401519800004";"4.48443984985";"184";"1";"Europe/Brussels";NA;NA
"BEL";"BRU";"2025-11-10";"20:35";"BEL3751";"BRUSELAS (BRU)";"No informado";"Noche";"3751";"302";"Brussels Airport";"Brussels";"Belgium";"EBBR";"50.901401519800004";"4.48443984985";"184";"1";"Europe/Brussels";NA;NA
"DLH";"MUC";"2025-11-09";"17:45";"DLH2640";"MUNICH (MUC)";"No informado";"Tarde";"2640";"346";"Munich Airport";"Munich";"Germany";"EDDM";"48.353802";"11.7861";"1487";"1";"Europe/Berlin";"Lufthansa";"Germany"
"DLH";"MUC";"2025-11-14";"11:25";"DLH1840";"MUNICH (MUC)";"No informado";"Mañana";"1840";"346";"Munich Airport";"Munich";"Germany";"EDDM";"48.353802";"11.7861";"1487";"1";"Europe/Berlin";"Lufthansa";"Germany"
"DLH";"FRA";"2025-11-13";"23:10";"DLH1164";"FRANKFURT (FRA)";"No informado";"Noche";"1164";"340";"Frankfurt am Main Airport";"Frankfurt";"Germany";"EDDF";"50.033333";"8.570556";"364";"1";"Europe/Berlin";"Lufthansa";"Germany"
"DLH";"FRA";"2025-11-14";"11:50";"DLH1160";"FRANKFURT (FRA)";"No informado";"Mañana";"1160";"340";"Frankfurt am Main Airport";"Frankfurt";"Germany";"EDDF";"50.033333";"8.570556";"364";"1";"Europe/Berlin";"Lufthansa";"Germany"
"DLH";"FRA";"2025-11-10";"17:10";"DLH1162";"FRANKFURT (FRA)";"No informado";"Tarde";"1162";"340";"Frankfurt am Main Airport";"Frankfurt";"Germany";"EDDF";"50.033333";"8.570556";"364";"1";"Europe/Berlin";"Lufthansa";"Germany"
"DLH";"MUC";"2025-11-13";"11:00";"DLH1840";"MUNICH (MUC)";"No informado";"Mañana";"1840";"346";"Munich Airport";"Munich";"Germany";"EDDM";"48.353802";"11.7861";"1487";"1";"Europe/Berlin";"Lufthansa";"Germany"
"DLH";"FRA";"2025-11-15";"23:15";"DLH1164";"FRANKFURT (FRA)";"No informado";"Noche";"1164";"340";"Frankfurt am Main Airport";"Frankfurt";"Germany";"EDDF";"50.033333";"8.570556";"364";"1";"Europe/Berlin";"Lufthansa";"Germany"
"DLH";"FRA";"2025-11-15";"12:20";"DLH1160";"FRANKFURT (FRA)";"No informado";"Tarde";"1160";"340";"Frankfurt am Main Airport";"Frankfurt";"Germany";"EDDF";"50.033333";"8.570556";"364";"1";"Europe/Berlin";"Lufthansa";"Germany"
"DLH";"FRA";"2025-11-14";"23:00";"DLH1164";"FRANKFURT (FRA)";"No informado";"Noche";"1164";"340";"Frankfurt am Main Airport";"Frankfurt";"Germany";"EDDF";"50.033333";"8.570556";"364";"1";"Europe/Berlin";"Lufthansa";"Germany"
"DLH";"FRA";"2025-11-09";"17:30";"DLH1162";"FRANKFURT (FRA)";"No informado";"Tarde";"1162";"340";"Frankfurt am Main Airport";"Frankfurt";"Germany";"EDDF";"50.033333";"8.570556";"364";"1";"Europe/Berlin";"Lufthansa";"Germany"
"DLH";"FRA";"2025-11-12";"23:20";"DLH1164";"FRANKFURT (FRA)";"No informado";"Noche";"1164";"340";"Frankfurt am Main Airport";"Frankfurt";"Germany";"EDDF";"50.033333";"8.570556";"364";"1";"Europe/Berlin";"Lufthansa";"Germany"
"DLH";"MUC";"2025-11-09";"10:53";"DLH1840";"MUNICH (MUC)";"Finalizado";"Mañana";"1840";"346";"Munich Airport";"Munich";"Germany";"EDDM";"48.353802";"11.7861";"1487";"1";"Europe/Berlin";"Lufthansa";"Germany"
"DLH";"FRA";"2025-11-13";"17:15";"DLH1162";"FRANKFURT (FRA)";"No informado";"Tarde";"1162";"340";"Frankfurt am Main Airport";"Frankfurt";"Germany";"EDDF";"50.033333";"8.570556";"364";"1";"Europe/Berlin";"Lufthansa";"Germany"
"DLH";"FRA";"2025-11-09";"12:10";"DLH1160";"FRANKFURT (FRA)";"En vuelo";"Tarde";"1160";"340";"Frankfurt am Main Airport";"Frankfurt";"Germany";"EDDF";"50.033333";"8.570556";"364";"1";"Europe/Berlin";"Lufthansa";"Germany"
"EJU";"BER";"2025-11-10";"09:10";"EJU5103";"BERLIN BRANDENBURG (BER)";"No informado";"Mañana";"5103";NA;NA;NA;NA;NA;NA;NA;NA;NA;NA;NA;NA
"EJU";"AMS";"2025-11-10";"18:50";"EJU7899";"AMSTERDAM /SCHIPHOL (AMS)";"No informado";"Noche";"7899";"580";"Amsterdam Airport Schiphol";"Amsterdam";"Netherlands";"EHAM";"52.308601";"4.76389";"-11";"1";"Europe/Amsterdam";NA;NA
"EJU";"AMS";"2025-11-14";"09:50";"EJU7899";"AMSTERDAM /SCHIPHOL (AMS)";"No informado";"Mañana";"7899";"580";"Amsterdam Airport Schiphol";"Amsterdam";"Netherlands";"EHAM";"52.308601";"4.76389";"-11";"1";"Europe/Amsterdam";NA;NA
"EJU";"BER";"2025-11-13";"16:55";"EJU5103";"BERLIN BRANDENBURG (BER)";"No informado";"Tarde";"5103";NA;NA;NA;NA;NA;NA;NA;NA;NA;NA;NA;NA
"EJU";"BER";"2025-11-14";"19:00";"EJU5103";"BERLIN BRANDENBURG (BER)";"No informado";"Noche";"5103";NA;NA;NA;NA;NA;NA;NA;NA;NA;NA;NA;NA
"EWG";"DUS";"2025-11-13";"09:20";"EWG9538";"DUSSELDORF (DUS)";"No informado";"Mañana";"9538";"345";"Düsseldorf Airport";"Duesseldorf";"Germany";"EDDL";"51.289501";"6.76678";"147";"1";"Europe/Berlin";"Eurowings";"Germany"
"EWG";"STR";"2025-11-13";"19:50";"EWG2530";"STUTTGART (STR)";"No informado";"Noche";"2530";"350";"Stuttgart Airport";"Stuttgart";"Germany";"EDDS";"48.689899444599995";"9.22196006775";"1276";"1";"Europe/Berlin";"Eurowings";"Germany"
"EWG";"DUS";"2025-11-11";"09:50";"EWG9538";"DUSSELDORF (DUS)";"No informado";"Mañana";"9538";"345";"Düsseldorf Airport";"Duesseldorf";"Germany";"EDDL";"51.289501";"6.76678";"147";"1";"Europe/Berlin";"Eurowings";"Germany"
"EWG";"DUS";"2025-11-15";"10:45";"EWG9538";"DUSSELDORF (DUS)";"No informado";"Mañana";"9538";"345";"Düsseldorf Airport";"Duesseldorf";"Germany";"EDDL";"51.289501";"6.76678";"147";"1";"Europe/Berlin";"Eurowings";"Germany"
"EWG";"DUS";"2025-11-10";"17:30";"EWG9538";"DUSSELDORF (DUS)";"No informado";"Tarde";"9538";"345";"Düsseldorf Airport";"Duesseldorf";"Germany";"EDDL";"51.289501";"6.76678";"147";"1";"Europe/Berlin";"Eurowings";"Germany"
"EWG";"DUS";"2025-11-16";"08:55";"EWG9538";"DUSSELDORF (DUS)";"No informado";"Mañana";"9538";"345";"Düsseldorf Airport";"Duesseldorf";"Germany";"EDDL";"51.289501";"6.76678";"147";"1";"Europe/Berlin";"Eurowings";"Germany"
"EWG";"CGN";"2025-11-09";"19:05";"EWG538";"KOELN/BONN (CGN)";"No informado";"Noche";"538";"344";"Cologne Bonn Airport";"Cologne";"Germany";"EDDK";"50.8658981323";"7.1427397728";"302";"1";"Europe/Berlin";"Eurowings";"Germany"
"EWG";"STR";"2025-11-16";"08:10";"EWG2530";"STUTTGART (STR)";"No informado";"Mañana";"2530";"350";"Stuttgart Airport";"Stuttgart";"Germany";"EDDS";"48.689899444599995";"9.22196006775";"1276";"1";"Europe/Berlin";"Eurowings";"Germany"
"EWG";"DUS";"2025-11-12";"13:05";"EWG9538";"DUSSELDORF (DUS)";"No informado";"Tarde";"9538";"345";"Düsseldorf Airport";"Duesseldorf";"Germany";"EDDL";"51.289501";"6.76678";"147";"1";"Europe/Berlin";"Eurowings";"Germany"
"EWG";"DUS";"2025-11-14";"13:30";"EWG9538";"DUSSELDORF (DUS)";"No informado";"Tarde";"9538";"345";"Düsseldorf Airport";"Duesseldorf";"Germany";"EDDL";"51.289501";"6.76678";"147";"1";"Europe/Berlin";"Eurowings";"Germany"
"EZS";"GVA";"2025-11-13";"12:25";"EZS1371";"GINEBRA (GVA)";"No informado";"Tarde";"1371";"1665";"Geneva Cointrin International Airport";"Geneva";"Switzerland";"LSGG";"46.23809814453125";"6.108950138092041";"1411";"1";"Europe/Paris";NA;NA
"EZS";"GVA";"2025-11-14";"14:05";"EZS1371";"GINEBRA (GVA)";"No informado";"Tarde";"1371";"1665";"Geneva Cointrin International Airport";"Geneva";"Switzerland";"LSGG";"46.23809814453125";"6.108950138092041";"1411";"1";"Europe/Paris";NA;NA
"EZS";"GVA";"2025-11-09";"20:15";"EZS1371";"GINEBRA (GVA)";"No informado";"Noche";"1371";"1665";"Geneva Cointrin International Airport";"Geneva";"Switzerland";"LSGG";"46.23809814453125";"6.108950138092041";"1411";"1";"Europe/Paris";NA;NA
"EZS";"BSL";"2025-11-10";"15:25";"EZS1031";"BASEL /MULHOUSE (BSL)";"No informado";"Tarde";"1031";"1423";"EuroAirport Basel-Mulhouse-Freiburg Airport";"Mulhouse";"France";"LFSB";"47.59";"7.5291667";"885";"1";"Europe/Paris";NA;NA
"EZS";"GVA";"2025-11-10";"14:00";"EZS1371";"GINEBRA (GVA)";"No informado";"Tarde";"1371";"1665";"Geneva Cointrin International Airport";"Geneva";"Switzerland";"LSGG";"46.23809814453125";"6.108950138092041";"1411";"1";"Europe/Paris";NA;NA
"EZS";"BSL";"2025-11-14";"16:45";"EZS1031";"BASEL /MULHOUSE (BSL)";"No informado";"Tarde";"1031";"1423";"EuroAirport Basel-Mulhouse-Freiburg Airport";"Mulhouse";"France";"LFSB";"47.59";"7.5291667";"885";"1";"Europe/Paris";NA;NA
"EZY";"LGW";"2025-11-12";"20:45";"EZY8013";"LONDRES /GATWICK (LGW)";"No informado";"Noche";"8013";"502";"London Gatwick Airport";"London";"United Kingdom";"EGKK";"51.148102";"-0.190278";"202";"0";"Europe/London";"easyJet";"United Kingdom"
"EZY";"LGW";"2025-11-10";"11:10";"EZY8009";"LONDRES /GATWICK (LGW)";"No informado";"Mañana";"8009";"502";"London Gatwick Airport";"London";"United Kingdom";"EGKK";"51.148102";"-0.190278";"202";"0";"Europe/London";"easyJet";"United Kingdom"
"EZY";"LGW";"2025-11-09";"20:50";"EZY6499";"LONDRES /GATWICK (LGW)";"No informado";"Noche";"6499";"502";"London Gatwick Airport";"London";"United Kingdom";"EGKK";"51.148102";"-0.190278";"202";"0";"Europe/London";"easyJet";"United Kingdom"
"EZY";"LGW";"2025-11-09";"10:49";"EZY8009";"LONDRES /GATWICK (LGW)";"Finalizado";"Mañana";"8009";"502";"London Gatwick Airport";"London";"United Kingdom";"EGKK";"51.148102";"-0.190278";"202";"0";"Europe/London";"easyJet";"United Kingdom"
"EZY";"LGW";"2025-11-14";"10:25";"EZY8011";"LONDRES /GATWICK (LGW)";"No informado";"Mañana";"8011";"502";"London Gatwick Airport";"London";"United Kingdom";"EGKK";"51.148102";"-0.190278";"202";"0";"Europe/London";"easyJet";"United Kingdom"
"EZY";"LGW";"2025-11-11";"20:40";"EZY8013";"LONDRES /GATWICK (LGW)";"No informado";"Noche";"8013";"502";"London Gatwick Airport";"London";"United Kingdom";"EGKK";"51.148102";"-0.190278";"202";"0";"Europe/London";"easyJet";"United Kingdom"
"IBB";"LPA";"2025-11-10";"18:30";"IBB5802";"GRAN CANARIA (LPA)";"No informado";"Noche";"5802";"1054";"Gran Canaria Airport";"Gran Canaria";"Spain";"GCLP";"27.931900024414062";"-15.38659954071045";"78";"0";"Atlantic/Canary";"Binter Canarias";"Spain"
"IBB";"TFN";"2025-11-09";"12:10";"IBB5804";"TENERIFE NORTE-C. LA LAGUNA (TFN)";"En vuelo";"Tarde";"5804";"1057";"Tenerife Norte Airport";"Tenerife";"Spain";"GCXO";"28.4827003479";"-16.3414993286";"2076";"0";"Atlantic/Canary";"Binter Canarias";"Spain"
"IBB";"LPA";"2025-11-09";"18:25";"IBB5802";"GRAN CANARIA (LPA)";"No informado";"Noche";"5802";"1054";"Gran Canaria Airport";"Gran Canaria";"Spain";"GCLP";"27.931900024414062";"-15.38659954071045";"78";"0";"Atlantic/Canary";"Binter Canarias";"Spain"
"IBB";"TFN";"2025-11-14";"11:50";"IBB5804";"TENERIFE NORTE-C. LA LAGUNA (TFN)";"No informado";"Mañana";"5804";"1057";"Tenerife Norte Airport";"Tenerife";"Spain";"GCXO";"28.4827003479";"-16.3414993286";"2076";"0";"Atlantic/Canary";"Binter Canarias";"Spain"
"IBE";"BRU";"2025-11-14";"11:20";"IBE5732";"BRUSELAS (BRU)";"No informado";"Mañana";"5732";"302";"Brussels Airport";"Brussels";"Belgium";"EBBR";"50.901401519800004";"4.48443984985";"184";"1";"Europe/Brussels";"Iberia Airlines";"Spain"
"IBE";"BCN";"2025-11-10";"20:00";"IBE2376";"BARCELONA-EL PRAT JOSEP TARRADELLAS (BCN)";"No informado";"Noche";"2376";"1218";"Barcelona International Airport";"Barcelona";"Spain";"LEBL";"41.2971";"2.07846";"12";"1";"Europe/Madrid";"Iberia Airlines";"Spain"
"IBE";"MAD";"2025-11-10";"09:05";"IBE1079";"MADRID-BARAJAS ADOLFO SUÁREZ (MAD)";"No informado";"Mañana";"1079";"1229";"Adolfo Suárez Madrid–Barajas Airport";"Madrid";"Spain";"LEMD";"40.471926";"-3.56264";"1998";"1";"Europe/Madrid";"Iberia Airlines";"Spain"
"IBE";"PMI";"2025-11-10";"21:05";"IBE2400";"PALMA DE MALLORCA (PMI)";"No informado";"Noche";"2400";"3998";"Palma De Mallorca Airport";"Palma de Mallorca";"Spain";"LEPA";"39.551700592";"2.73881006241";"27";"1";"Europe/Madrid";"Iberia Airlines";"Spain"
"IBE";"MAD";"2025-11-10";"00:05";"IBE1083";"MADRID-BARAJAS ADOLFO SUÁREZ (MAD)";"No informado";"Madrugada";"1083";"1229";"Adolfo Suárez Madrid–Barajas Airport";"Madrid";"Spain";"LEMD";"40.471926";"-3.56264";"1998";"1";"Europe/Madrid";"Iberia Airlines";"Spain"
"IBE";"PMI";"2025-11-14";"20:45";"IBE2400";"PALMA DE MALLORCA (PMI)";"No informado";"Noche";"2400";"3998";"Palma De Mallorca Airport";"Palma de Mallorca";"Spain";"LEPA";"39.551700592";"2.73881006241";"27";"1";"Europe/Madrid";"Iberia Airlines";"Spain"
"IBE";"IBZ";"2025-11-09";"23:25";"IBE2431";"IBIZA (IBZ)";"No informado";"Noche";"2431";"1225";"Ibiza Airport";"Ibiza";"Spain";"LEIB";"38.872898101800004";"1.3731199502899998";"24";"1";"Europe/Madrid";"Iberia Airlines";"Spain"
"IBE";"PMI";"2025-11-12";"20:30";"IBE5548";"PALMA DE MALLORCA (PMI)";"No informado";"Noche";"5548";"3998";"Palma De Mallorca Airport";"Palma de Mallorca";"Spain";"LEPA";"39.551700592";"2.73881006241";"27";"1";"Europe/Madrid";"Iberia Airlines";"Spain"
"IBE";"TFN";"2025-11-14";"12:45";"IBE5405";"TENERIFE NORTE-C. LA LAGUNA (TFN)";"No informado";"Tarde";"5405";"1057";"Tenerife Norte Airport";"Tenerife";"Spain";"GCXO";"28.4827003479";"-16.3414993286";"2076";"0";"Atlantic/Canary";"Iberia Airlines";"Spain"
"IBE";"BIO";"2025-11-10";"13:45";"IBE2313";"BILBAO (BIO)";"No informado";"Tarde";"2313";"1216";"Bilbao Airport";"Bilbao";"Spain";"LEBB";"43.30110168457031";"-2.9106099605560303";"138";"1";"Europe/Madrid";"Iberia Airlines";"Spain"
"IBE";"IBZ";"2025-11-10";"23:40";"IBE2431";"IBIZA (IBZ)";"No informado";"Noche";"2431";"1225";"Ibiza Airport";"Ibiza";"Spain";"LEIB";"38.872898101800004";"1.3731199502899998";"24";"1";"Europe/Madrid";"Iberia Airlines";"Spain"
"IBE";"IBZ";"2025-11-11";"11:00";"IBE2433";"IBIZA (IBZ)";"No informado";"Mañana";"2433";"1225";"Ibiza Airport";"Ibiza";"Spain";"LEIB";"38.872898101800004";"1.3731199502899998";"24";"1";"Europe/Madrid";"Iberia Airlines";"Spain"
"IBE";"PMI";"2025-11-13";"15:30";"IBE5548";"PALMA DE MALLORCA (PMI)";"No informado";"Tarde";"5548";"3998";"Palma De Mallorca Airport";"Palma de Mallorca";"Spain";"LEPA";"39.551700592";"2.73881006241";"27";"1";"Europe/Madrid";"Iberia Airlines";"Spain"
"IBE";"BCN";"2025-11-09";"22:00";"IBE2376";"BARCELONA-EL PRAT JOSEP TARRADELLAS (BCN)";"No informado";"Noche";"2376";"1218";"Barcelona International Airport";"Barcelona";"Spain";"LEBL";"41.2971";"2.07846";"12";"1";"Europe/Madrid";"Iberia Airlines";"Spain"
"IBE";"LPA";"2025-11-14";"19:35";"IBE5247";"GRAN CANARIA (LPA)";"No informado";"Noche";"5247";"1054";"Gran Canaria Airport";"Gran Canaria";"Spain";"GCLP";"27.931900024414062";"-15.38659954071045";"78";"0";"Atlantic/Canary";"Iberia Airlines";"Spain"
"IBE";"SVQ";"2025-11-10";"15:45";"IBE2395";"SEVILLA (SVQ)";"No informado";"Tarde";"2395";"1253";"Sevilla Airport";"Sevilla";"Spain";"LEZL";"37.417999267578125";"-5.8931097984313965";"112";"1";"Europe/Madrid";"Iberia Airlines";"Spain"
"IBE";"AGP";"2025-11-10";"08:15";"IBE2382";"MALAGA-COSTA DEL SOL (AGP)";"No informado";"Mañana";"2382";"1230";"Málaga Airport";"Malaga";"Spain";"LEMG";"36.67490005493164";"-4.499110221862793";"53";"1";"Europe/Madrid";"Iberia Airlines";"Spain"
"IBE";"TFN";"2025-11-12";"19:25";"IBE5405";"TENERIFE NORTE-C. LA LAGUNA (TFN)";"No informado";"Noche";"5405";"1057";"Tenerife Norte Airport";"Tenerife";"Spain";"GCXO";"28.4827003479";"-16.3414993286";"2076";"0";"Atlantic/Canary";"Iberia Airlines";"Spain"
"IBE";"PMI";"2025-11-11";"15:50";"IBE5548";"PALMA DE MALLORCA (PMI)";"No informado";"Tarde";"5548";"3998";"Palma De Mallorca Airport";"Palma de Mallorca";"Spain";"LEPA";"39.551700592";"2.73881006241";"27";"1";"Europe/Madrid";"Iberia Airlines";"Spain"
"IBE";"PMI";"2025-11-12";"18:30";"IBE2406";"PALMA DE MALLORCA (PMI)";"No informado";"Noche";"2406";"3998";"Palma De Mallorca Airport";"Palma de Mallorca";"Spain";"LEPA";"39.551700592";"2.73881006241";"27";"1";"Europe/Madrid";"Iberia Airlines";"Spain"
"IBE";"BIO";"2025-11-14";"16:45";"IBE2311";"BILBAO (BIO)";"No informado";"Tarde";"2311";"1216";"Bilbao Airport";"Bilbao";"Spain";"LEBB";"43.30110168457031";"-2.9106099605560303";"138";"1";"Europe/Madrid";"Iberia Airlines";"Spain"
"IBE";"AGP";"2025-11-09";"23:35";"IBE2380";"MALAGA-COSTA DEL SOL (AGP)";"No informado";"Noche";"2380";"1230";"Málaga Airport";"Malaga";"Spain";"LEMG";"36.67490005493164";"-4.499110221862793";"53";"1";"Europe/Madrid";"Iberia Airlines";"Spain"
"IBE";"PMI";"2025-11-10";"23:35";"IBE2406";"PALMA DE MALLORCA (PMI)";"No informado";"Noche";"2406";"3998";"Palma De Mallorca Airport";"Palma de Mallorca";"Spain";"LEPA";"39.551700592";"2.73881006241";"27";"1";"Europe/Madrid";"Iberia Airlines";"Spain"
"IBE";"PMI";"2025-11-10";"11:50";"IBE2402";"PALMA DE MALLORCA (PMI)";"No informado";"Mañana";"2402";"3998";"Palma De Mallorca Airport";"Palma de Mallorca";"Spain";"LEPA";"39.551700592";"2.73881006241";"27";"1";"Europe/Madrid";"Iberia Airlines";"Spain"
"IBE";"MAH";"2025-11-15";"15:45";"IBE2441";"MENORCA (MAH)";"No informado";"Tarde";"2441";"1231";"Menorca Airport";"Menorca";"Spain";"LEMH";"39.86259841918945";"4.218649864196777";"302";"1";"Europe/Madrid";"Iberia Airlines";"Spain"
"IBE";"MAD";"2025-11-12";"00:50";"IBE1085";"MADRID-BARAJAS ADOLFO SUÁREZ (MAD)";"No informado";"Madrugada";"1085";"1229";"Adolfo Suárez Madrid–Barajas Airport";"Madrid";"Spain";"LEMD";"40.471926";"-3.56264";"1998";"1";"Europe/Madrid";"Iberia Airlines";"Spain"
"IBE";"TFN";"2025-11-16";"13:15";"IBE5405";"TENERIFE NORTE-C. LA LAGUNA (TFN)";"No informado";"Tarde";"5405";"1057";"Tenerife Norte Airport";"Tenerife";"Spain";"GCXO";"28.4827003479";"-16.3414993286";"2076";"0";"Atlantic/Canary";"Iberia Airlines";"Spain"
"IBE";"BIO";"2025-11-14";"14:55";"IBE5847";"BILBAO (BIO)";"No informado";"Tarde";"5847";"1216";"Bilbao Airport";"Bilbao";"Spain";"LEBB";"43.30110168457031";"-2.9106099605560303";"138";"1";"Europe/Madrid";"Iberia Airlines";"Spain"
"IBE";"BRU";"2025-11-13";"15:40";"IBE5732";"BRUSELAS (BRU)";"No informado";"Tarde";"5732";"302";"Brussels Airport";"Brussels";"Belgium";"EBBR";"50.901401519800004";"4.48443984985";"184";"1";"Europe/Brussels";"Iberia Airlines";"Spain"
"IBE";"ORY";"2025-11-12";"17:30";"IBE5674";"PARIS /ORLY (ORY)";"No informado";"Tarde";"5674";"1386";"Paris-Orly Airport";"Paris";"France";"LFPO";"48.7233333";"2.3794444";"291";"1";"Europe/Paris";"Iberia Airlines";"Spain"
"IBE";"SVQ";"2025-11-15";"13:50";"IBE2391";"SEVILLA (SVQ)";"No informado";"Tarde";"2391";"1253";"Sevilla Airport";"Sevilla";"Spain";"LEZL";"37.417999267578125";"-5.8931097984313965";"112";"1";"Europe/Madrid";"Iberia Airlines";"Spain"
"IBE";"BRU";"2025-11-11";"16:05";"IBE5732";"BRUSELAS (BRU)";"No informado";"Tarde";"5732";"302";"Brussels Airport";"Brussels";"Belgium";"EBBR";"50.901401519800004";"4.48443984985";"184";"1";"Europe/Brussels";"Iberia Airlines";"Spain"
"IBE";"MAH";"2025-11-10";"16:00";"IBE2441";"MENORCA (MAH)";"No informado";"Tarde";"2441";"1231";"Menorca Airport";"Menorca";"Spain";"LEMH";"39.86259841918945";"4.218649864196777";"302";"1";"Europe/Madrid";"Iberia Airlines";"Spain"
"IBE";"BIO";"2025-11-12";"20:30";"IBE5554";"BILBAO (BIO)";"No informado";"Noche";"5554";"1216";"Bilbao Airport";"Bilbao";"Spain";"LEBB";"43.30110168457031";"-2.9106099605560303";"138";"1";"Europe/Madrid";"Iberia Airlines";"Spain"
"IBE";"ORY";"2025-11-14";"08:25";"IBE5783";"PARIS /ORLY (ORY)";"No informado";"Mañana";"5783";"1386";"Paris-Orly Airport";"Paris";"France";"LFPO";"48.7233333";"2.3794444";"291";"1";"Europe/Paris";"Iberia Airlines";"Spain"
"IBE";"MAH";"2025-11-09";"22:20";"IBE2441";"MENORCA (MAH)";"No informado";"Noche";"2441";"1231";"Menorca Airport";"Menorca";"Spain";"LEMH";"39.86259841918945";"4.218649864196777";"302";"1";"Europe/Madrid";"Iberia Airlines";"Spain"
"IBE";"PMI";"2025-11-09";"12:55";"IBE2402";"PALMA DE MALLORCA (PMI)";"No informado";"Tarde";"2402";"3998";"Palma De Mallorca Airport";"Palma de Mallorca";"Spain";"LEPA";"39.551700592";"2.73881006241";"27";"1";"Europe/Madrid";"Iberia Airlines";"Spain"
"IBE";"PMI";"2025-11-13";"23:45";"IBE2406";"PALMA DE MALLORCA (PMI)";"No informado";"Noche";"2406";"3998";"Palma De Mallorca Airport";"Palma de Mallorca";"Spain";"LEPA";"39.551700592";"2.73881006241";"27";"1";"Europe/Madrid";"Iberia Airlines";"Spain"
"IBE";"AGP";"2025-11-15";"10:05";"IBE2382";"MALAGA-COSTA DEL SOL (AGP)";"No informado";"Mañana";"2382";"1230";"Málaga Airport";"Malaga";"Spain";"LEMG";"36.67490005493164";"-4.499110221862793";"53";"1";"Europe/Madrid";"Iberia Airlines";"Spain"
"IBE";"PMI";"2025-11-11";"16:45";"IBE2406";"PALMA DE MALLORCA (PMI)";"No informado";"Tarde";"2406";"3998";"Palma De Mallorca Airport";"Palma de Mallorca";"Spain";"LEPA";"39.551700592";"2.73881006241";"27";"1";"Europe/Madrid";"Iberia Airlines";"Spain"
"IBE";"MAD";"2025-11-09";"17:05";"IBE1081";"MADRID-BARAJAS ADOLFO SUÁREZ (MAD)";"No informado";"Tarde";"1081";"1229";"Adolfo Suárez Madrid–Barajas Airport";"Madrid";"Spain";"LEMD";"40.471926";"-3.56264";"1998";"1";"Europe/Madrid";"Iberia Airlines";"Spain"
"IBE";"IBZ";"2025-11-10";"09:10";"IBE2433";"IBIZA (IBZ)";"No informado";"Mañana";"2433";"1225";"Ibiza Airport";"Ibiza";"Spain";"LEIB";"38.872898101800004";"1.3731199502899998";"24";"1";"Europe/Madrid";"Iberia Airlines";"Spain"
"IBE";"SVQ";"2025-11-10";"20:05";"IBE2393";"SEVILLA (SVQ)";"No informado";"Noche";"2393";"1253";"Sevilla Airport";"Sevilla";"Spain";"LEZL";"37.417999267578125";"-5.8931097984313965";"112";"1";"Europe/Madrid";"Iberia Airlines";"Spain"
"IBE";"ORY";"2025-11-11";"19:35";"IBE5676";"PARIS /ORLY (ORY)";"No informado";"Noche";"5676";"1386";"Paris-Orly Airport";"Paris";"France";"LFPO";"48.7233333";"2.3794444";"291";"1";"Europe/Paris";"Iberia Airlines";"Spain"
"IBE";"SVQ";"2025-11-10";"12:45";"IBE2391";"SEVILLA (SVQ)";"No informado";"Tarde";"2391";"1253";"Sevilla Airport";"Sevilla";"Spain";"LEZL";"37.417999267578125";"-5.8931097984313965";"112";"1";"Europe/Madrid";"Iberia Airlines";"Spain"
"IBE";"ORY";"2025-11-15";"09:15";"IBE5783";"PARIS /ORLY (ORY)";"No informado";"Mañana";"5783";"1386";"Paris-Orly Airport";"Paris";"France";"LFPO";"48.7233333";"2.3794444";"291";"1";"Europe/Paris";"Iberia Airlines";"Spain"
"IBE";"IBZ";"2025-11-14";"23:45";"IBE2431";"IBIZA (IBZ)";"No informado";"Noche";"2431";"1225";"Ibiza Airport";"Ibiza";"Spain";"LEIB";"38.872898101800004";"1.3731199502899998";"24";"1";"Europe/Madrid";"Iberia Airlines";"Spain"
"IBE";"PMI";"2025-11-10";"00:15";"IBE2404";"PALMA DE MALLORCA (PMI)";"No informado";"Madrugada";"2404";"3998";"Palma De Mallorca Airport";"Palma de Mallorca";"Spain";"LEPA";"39.551700592";"2.73881006241";"27";"1";"Europe/Madrid";"Iberia Airlines";"Spain"
"ITY";"FCO";"2025-11-12";"10:50";"ITY9006";"ROMA /FIUMICINO (FCO)";"No informado";"Mañana";"9006";"1555";"Leonardo da Vinci–Fiumicino Airport";"Rome";"Italy";"LIRF";"41.8002778";"12.2388889";"13";"1";"Europe/Rome";NA;NA
"KLJ";"BLQ";"2025-11-12";"11:10";"KLJ3948";"BOLONIA (BLQ)";"No informado";"Mañana";"3948";"1538";"Bologna Guglielmo Marconi Airport";"Bologna";"Italy";"LIPE";"44.5354";"11.2887";"123";"1";"Europe/Rome";NA;NA
"KLM";"AMS";"2025-11-09";"23:00";"KLM1535";"AMSTERDAM /SCHIPHOL (AMS)";"No informado";"Noche";"1535";"580";"Amsterdam Airport Schiphol";"Amsterdam";"Netherlands";"EHAM";"52.308601";"4.76389";"-11";"1";"Europe/Amsterdam";"KLM Royal Dutch Airlines";"Netherlands"
"KLM";"AMS";"2025-11-09";"16:10";"KLM1531";"AMSTERDAM /SCHIPHOL (AMS)";"No informado";"Tarde";"1531";"580";"Amsterdam Airport Schiphol";"Amsterdam";"Netherlands";"EHAM";"52.308601";"4.76389";"-11";"1";"Europe/Amsterdam";"KLM Royal Dutch Airlines";"Netherlands"
"KLM";"AMS";"2025-11-12";"09:05";"KLM2659";"AMSTERDAM /SCHIPHOL (AMS)";"No informado";"Mañana";"2659";"580";"Amsterdam Airport Schiphol";"Amsterdam";"Netherlands";"EHAM";"52.308601";"4.76389";"-11";"1";"Europe/Amsterdam";"KLM Royal Dutch Airlines";"Netherlands"
"KLM";"AMS";"2025-11-14";"20:30";"KLM2523";"AMSTERDAM /SCHIPHOL (AMS)";"No informado";"Noche";"2523";"580";"Amsterdam Airport Schiphol";"Amsterdam";"Netherlands";"EHAM";"52.308601";"4.76389";"-11";"1";"Europe/Amsterdam";"KLM Royal Dutch Airlines";"Netherlands"
"LGL";"LUX";"2025-11-10";"19:10";"LGL763";"LUXEMBURGO (LUX)";"No informado";"Noche";"763";"629";"Luxembourg-Findel International Airport";"Luxemburg";"Luxembourg";"ELLX";"49.6233333";"6.2044444";"1234";"1";"Europe/Luxembourg";"Luxair";"Luxembourg"
"LGL";"LUX";"2025-11-14";"08:50";"LGL763";"LUXEMBURGO (LUX)";"No informado";"Mañana";"763";"629";"Luxembourg-Findel International Airport";"Luxemburg";"Luxembourg";"ELLX";"49.6233333";"6.2044444";"1234";"1";"Europe/Luxembourg";"Luxair";"Luxembourg"
"LHX";"MUC";"2025-11-10";"17:35";"LHX1842";"MUNICH (MUC)";"No informado";"Tarde";"1842";"346";"Munich Airport";"Munich";"Germany";"EDDM";"48.353802";"11.7861";"1487";"1";"Europe/Berlin";NA;NA
"MEA";"MAD";"2025-11-11";"15:55";"MEA4065";"MADRID-BARAJAS ADOLFO SUÁREZ (MAD)";"No informado";"Tarde";"4065";"1229";"Adolfo Suárez Madrid–Barajas Airport";"Madrid";"Spain";"LEMD";"40.471926";"-3.56264";"1998";"1";"Europe/Madrid";"Middle East Airlines";"Lebanon"
"MSC";"CAI";"2025-11-17";"15:05";"MSC3724";"(CAI)";"No informado";"Tarde";"3724";"1128";"Cairo International Airport";"Cairo";"Egypt";"HECA";"30.12190055847168";"31.40559959411621";"382";"2";"Africa/Cairo";"Air Cairo";"Egypt"
"NIA";"CAI";"2025-11-10";"12:50";"NIA6101";"(CAI)";"No informado";"Tarde";"6101";"1128";"Cairo International Airport";"Cairo";"Egypt";"HECA";"30.12190055847168";"31.40559959411621";"382";"2";"Africa/Cairo";"Nile Air";"Egypt"
"NMA";"CAI";"2025-11-17";"11:20";"NMA1082";"(CAI)";"No informado";"Mañana";"1082";"1128";"Cairo International Airport";"Cairo";"Egypt";"HECA";"30.12190055847168";"31.40559959411621";"382";"2";"Africa/Cairo";"Nesma Airlines";"Egypt"
"QTR";"AGP";"2025-11-11";"16:15";"QTR6541";"MALAGA-COSTA DEL SOL (AGP)";"No informado";"Tarde";"6541";"1230";"Málaga Airport";"Malaga";"Spain";"LEMG";"36.67490005493164";"-4.499110221862793";"53";"1";"Europe/Madrid";"Qatar Airways";"Qatar"
"QTR";"AGP";"2025-11-13";"16:20";"QTR6541";"MALAGA-COSTA DEL SOL (AGP)";"No informado";"Tarde";"6541";"1230";"Málaga Airport";"Malaga";"Spain";"LEMG";"36.67490005493164";"-4.499110221862793";"53";"1";"Europe/Madrid";"Qatar Airways";"Qatar"
"RAM";"CMN";"2025-11-09";"18:25";"RAM968";"CASABLANCA /MOHAMED V (CMN)";"No informado";"Noche";"968";"1074";"Mohammed V International Airport";"Casablanca";"Morocco";"GMMN";"33.36750030517578";"-7.589970111846924";"656";"0";"Africa/Casablanca";"Royal Air Maroc";"Morocco"
"RAM";"CMN";"2025-11-10";"11:35";"RAM968";"CASABLANCA /MOHAMED V (CMN)";"No informado";"Mañana";"968";"1074";"Mohammed V International Airport";"Casablanca";"Morocco";"GMMN";"33.36750030517578";"-7.589970111846924";"656";"0";"Africa/Casablanca";"Royal Air Maroc";"Morocco"
"RYR";"CRL";"2025-11-10";"20:25";"RYR2147";"BRUSELAS /CHARLEROI (CRL)";"No informado";"Noche";"2147";"304";"Brussels South Charleroi Airport";"Charleroi";"Belgium";"EBCI";"50.459202";"4.45382";"614";"1";"Europe/Brussels";"Ryanair";"Ireland"
"RYR";"CRL";"2025-11-14";"13:20";"RYR1687";"BRUSELAS /CHARLEROI (CRL)";"No informado";"Tarde";"1687";"304";"Brussels South Charleroi Airport";"Charleroi";"Belgium";"EBCI";"50.459202";"4.45382";"614";"1";"Europe/Brussels";"Ryanair";"Ireland"
"RYR";"PSA";"2025-11-12";"19:05";"RYR952";"PISA / GALILEO GALILEI (PSA)";"No informado";"Noche";"952";"1562";"Pisa International Airport";"Pisa";"Italy";"LIRP";"43.683899";"10.3927";"6";"1";"Europe/Rome";"Ryanair";"Ireland"
"RYR";"ACE";"2025-11-09";"20:30";"RYR3488";"LANZAROTE CÉSAR MANRIQUE (ACE)";"No informado";"Noche";"3488";"1055";"Lanzarote Airport";"Arrecife";"Spain";"GCRR";"28.945499";"-13.6052";"46";"0";"Atlantic/Canary";"Ryanair";"Ireland"
"RYR";"DUB";"2025-11-10";"12:30";"RYR1740";"DUBLIN (DUB)";"No informado";"Tarde";"1740";"599";"Dublin Airport";"Dublin";"Ireland";"EIDW";"53.421299";"-6.27007";"242";"0";"Europe/Dublin";"Ryanair";"Ireland"
"RYR";"LPA";"2025-11-12";"22:45";"RYR7201";"GRAN CANARIA (LPA)";"No informado";"Noche";"7201";"1054";"Gran Canaria Airport";"Gran Canaria";"Spain";"GCLP";"27.931900024414062";"-15.38659954071045";"78";"0";"Atlantic/Canary";"Ryanair";"Ireland"
"RYR";"PSA";"2025-11-09";"14:10";"RYR952";"PISA / GALILEO GALILEI (PSA)";"No informado";"Tarde";"952";"1562";"Pisa International Airport";"Pisa";"Italy";"LIRP";"43.683899";"10.3927";"6";"1";"Europe/Rome";"Ryanair";"Ireland"
"RYR";"CRL";"2025-11-10";"14:40";"RYR1687";"BRUSELAS /CHARLEROI (CRL)";"No informado";"Tarde";"1687";"304";"Brussels South Charleroi Airport";"Charleroi";"Belgium";"EBCI";"50.459202";"4.45382";"614";"1";"Europe/Brussels";"Ryanair";"Ireland"
"RYR";"LPA";"2025-11-09";"23:35";"RYR7201";"GRAN CANARIA (LPA)";"No informado";"Noche";"7201";"1054";"Gran Canaria Airport";"Gran Canaria";"Spain";"GCLP";"27.931900024414062";"-15.38659954071045";"78";"0";"Atlantic/Canary";"Ryanair";"Ireland"
"RYR";"PSA";"2025-11-09";"20:20";"RYR8712";"PISA / GALILEO GALILEI (PSA)";"No informado";"Noche";"8712";"1562";"Pisa International Airport";"Pisa";"Italy";"LIRP";"43.683899";"10.3927";"6";"1";"Europe/Rome";"Ryanair";"Ireland"
"RYR";"BER";"2025-11-14";"08:50";"RYR138";"BERLIN BRANDENBURG (BER)";"No informado";"Mañana";"138";NA;NA;NA;NA;NA;NA;NA;NA;NA;NA;"Ryanair";"Ireland"
"RYR";"AGP";"2025-11-09";"21:35";"RYR645";"MALAGA-COSTA DEL SOL (AGP)";"No informado";"Noche";"645";"1230";"Málaga Airport";"Malaga";"Spain";"LEMG";"36.67490005493164";"-4.499110221862793";"53";"1";"Europe/Madrid";"Ryanair";"Ireland"
"RYR";"ACE";"2025-11-15";"21:30";"RYR3488";"LANZAROTE CÉSAR MANRIQUE (ACE)";"No informado";"Noche";"3488";"1055";"Lanzarote Airport";"Arrecife";"Spain";"GCRR";"28.945499";"-13.6052";"46";"0";"Atlantic/Canary";"Ryanair";"Ireland"
"RYR";"PSA";"2025-11-15";"07:55";"RYR952";"PISA / GALILEO GALILEI (PSA)";"No informado";"Mañana";"952";"1562";"Pisa International Airport";"Pisa";"Italy";"LIRP";"43.683899";"10.3927";"6";"1";"Europe/Rome";"Ryanair";"Ireland"
"RYR";"BER";"2025-11-15";"09:05";"RYR138";"BERLIN BRANDENBURG (BER)";"No informado";"Mañana";"138";NA;NA;NA;NA;NA;NA;NA;NA;NA;NA;"Ryanair";"Ireland"
"RYR";"ACE";"2025-11-10";"21:05";"RYR3488";"LANZAROTE CÉSAR MANRIQUE (ACE)";"No informado";"Noche";"3488";"1055";"Lanzarote Airport";"Arrecife";"Spain";"GCRR";"28.945499";"-13.6052";"46";"0";"Atlantic/Canary";"Ryanair";"Ireland"
"RYR";"EDI";"2025-11-12";"10:00";"RYR1092";"EDIMBURGO (EDI)";"No informado";"Mañana";"1092";"535";"Edinburgh Airport";"Edinburgh";"United Kingdom";"EGPH";"55.95000076293945";"-3.372499942779541";"135";"0";"Europe/London";"Ryanair";"Ireland"
"RYR";"ACE";"2025-11-13";"20:45";"RYR3488";"LANZAROTE CÉSAR MANRIQUE (ACE)";"No informado";"Noche";"3488";"1055";"Lanzarote Airport";"Arrecife";"Spain";"GCRR";"28.945499";"-13.6052";"46";"0";"Atlantic/Canary";"Ryanair";"Ireland"
"RYR";"AGP";"2025-11-10";"13:35";"RYR645";"MALAGA-COSTA DEL SOL (AGP)";"No informado";"Tarde";"645";"1230";"Málaga Airport";"Malaga";"Spain";"LEMG";"36.67490005493164";"-4.499110221862793";"53";"1";"Europe/Madrid";"Ryanair";"Ireland"
"RYR";"PMI";"2025-11-14";"14:00";"RYR7215";"PALMA DE MALLORCA (PMI)";"No informado";"Tarde";"7215";"3998";"Palma De Mallorca Airport";"Palma de Mallorca";"Spain";"LEPA";"39.551700592";"2.73881006241";"27";"1";"Europe/Madrid";"Ryanair";"Ireland"
"RYR";"EIN";"2025-11-09";"14:50";"RYR1718";"EINDHOVEN (EIN)";"No informado";"Tarde";"1718";"585";"Eindhoven Airport";"Eindhoven";"Netherlands";"EHEH";"51.4500999451";"5.37452983856";"74";"1";"Europe/Amsterdam";"Ryanair";"Ireland"
"RYR";"EIN";"2025-11-12";"21:10";"RYR1718";"EINDHOVEN (EIN)";"No informado";"Noche";"1718";"585";"Eindhoven Airport";"Eindhoven";"Netherlands";"EHEH";"51.4500999451";"5.37452983856";"74";"1";"Europe/Amsterdam";"Ryanair";"Ireland"
"RYR";"CRL";"2025-11-15";"11:35";"RYR1687";"BRUSELAS /CHARLEROI (CRL)";"No informado";"Mañana";"1687";"304";"Brussels South Charleroi Airport";"Charleroi";"Belgium";"EBCI";"50.459202";"4.45382";"614";"1";"Europe/Brussels";"Ryanair";"Ireland"
"RYR";"BGY";"2025-11-09";"10:50";"RYR497";"MILAN/BERGAMO (BGY)";"Finalizado";"Mañana";"497";"1525";"Il Caravaggio International Airport";"Bergamo";"Italy";"LIME";"45.673901";"9.70417";"782";"1";"Europe/Rome";"Ryanair";"Ireland"
"RYR";"BGY";"2025-11-10";"23:30";"RYR4663";"MILAN/BERGAMO (BGY)";"No informado";"Noche";"4663";"1525";"Il Caravaggio International Airport";"Bergamo";"Italy";"LIME";"45.673901";"9.70417";"782";"1";"Europe/Rome";"Ryanair";"Ireland"
"RYR";"BGY";"2025-11-14";"07:50";"RYR497";"MILAN/BERGAMO (BGY)";"No informado";"Mañana";"497";"1525";"Il Caravaggio International Airport";"Bergamo";"Italy";"LIME";"45.673901";"9.70417";"782";"1";"Europe/Rome";"Ryanair";"Ireland"
"RYR";"BGY";"2025-11-11";"21:00";"RYR497";"MILAN/BERGAMO (BGY)";"No informado";"Noche";"497";"1525";"Il Caravaggio International Airport";"Bergamo";"Italy";"LIME";"45.673901";"9.70417";"782";"1";"Europe/Rome";"Ryanair";"Ireland"
"RYR";"AGP";"2025-11-14";"21:45";"RYR638";"MALAGA-COSTA DEL SOL (AGP)";"No informado";"Noche";"638";"1230";"Málaga Airport";"Malaga";"Spain";"LEMG";"36.67490005493164";"-4.499110221862793";"53";"1";"Europe/Madrid";"Ryanair";"Ireland"
"RYR";"CRL";"2025-11-12";"17:10";"RYR1687";"BRUSELAS /CHARLEROI (CRL)";"No informado";"Tarde";"1687";"304";"Brussels South Charleroi Airport";"Charleroi";"Belgium";"EBCI";"50.459202";"4.45382";"614";"1";"Europe/Brussels";"Ryanair";"Ireland"
"RYR";"BGY";"2025-11-10";"09:00";"RYR4728";"MILAN/BERGAMO (BGY)";"No informado";"Mañana";"4728";"1525";"Il Caravaggio International Airport";"Bergamo";"Italy";"LIME";"45.673901";"9.70417";"782";"1";"Europe/Rome";"Ryanair";"Ireland"
"RYR";"DUB";"2025-11-12";"12:55";"RYR1740";"DUBLIN (DUB)";"No informado";"Tarde";"1740";"599";"Dublin Airport";"Dublin";"Ireland";"EIDW";"53.421299";"-6.27007";"242";"0";"Europe/Dublin";"Ryanair";"Ireland"
"RYR";"BGY";"2025-11-10";"00:25";"RYR4728";"MILAN/BERGAMO (BGY)";"No informado";"Madrugada";"4728";"1525";"Il Caravaggio International Airport";"Bergamo";"Italy";"LIME";"45.673901";"9.70417";"782";"1";"Europe/Rome";"Ryanair";"Ireland"
"RYR";"BHX";"2025-11-15";"09:25";"RYR9380";"BIRMINGHAM / INTERNACIONAL (BHX)";"No informado";"Mañana";"9380";"469";"Birmingham International Airport";"Birmingham";"United Kingdom";"EGBB";"52.453899383499994";"-1.74802994728";"327";"0";"Europe/London";"Ryanair";"Ireland"
"RYR";"CRL";"2025-11-11";"13:35";"RYR1687";"BRUSELAS /CHARLEROI (CRL)";"No informado";"Tarde";"1687";"304";"Brussels South Charleroi Airport";"Charleroi";"Belgium";"EBCI";"50.459202";"4.45382";"614";"1";"Europe/Brussels";"Ryanair";"Ireland"
"RYR";"AGP";"2025-11-14";"14:45";"RYR645";"MALAGA-COSTA DEL SOL (AGP)";"No informado";"Tarde";"645";"1230";"Málaga Airport";"Malaga";"Spain";"LEMG";"36.67490005493164";"-4.499110221862793";"53";"1";"Europe/Madrid";"Ryanair";"Ireland"
"RYR";"PMO";"2025-11-15";"00:35";"RYR4486";"PALERMO /PUNTA RAISI (PMO)";"No informado";"Madrugada";"4486";"1512";"Falcone–Borsellino Airport";"Palermo";"Italy";"LICJ";"38.175999";"13.091";"65";"1";"Europe/Rome";"Ryanair";"Ireland"
"RYR";"FEZ";"2025-11-10";"15:40";"RYR5372";"FEZ /SAIS (FEZ)";"No informado";"Tarde";"5372";"1066";"Saïss Airport";"Fes";"Morocco";"GMFF";"33.9272994995";"-4.977960109709999";"1900";"0";"Africa/Casablanca";"Ryanair";"Ireland"
"RYR";"FKB";"2025-11-09";"16:10";"RYR1780";"BADEN BADEN-KARLSRUHE (FKB) (FKB)";"No informado";"Tarde";"1780";"4166";"Karlsruhe Baden-Baden Airport";"Karlsruhe/Baden-Baden";"Germany";"EDSB";"48.7793998718";"8.08049964905";"408";"1";"Europe/Berlin";"Ryanair";"Ireland"
"RYR";"LPA";"2025-11-15";"12:35";"RYR7201";"GRAN CANARIA (LPA)";"No informado";"Tarde";"7201";"1054";"Gran Canaria Airport";"Gran Canaria";"Spain";"GCLP";"27.931900024414062";"-15.38659954071045";"78";"0";"Atlantic/Canary";"Ryanair";"Ireland"
"RYR";"FKB";"2025-11-15";"18:30";"RYR1780";"BADEN BADEN-KARLSRUHE (FKB) (FKB)";"No informado";"Noche";"1780";"4166";"Karlsruhe Baden-Baden Airport";"Karlsruhe/Baden-Baden";"Germany";"EDSB";"48.7793998718";"8.08049964905";"408";"1";"Europe/Berlin";"Ryanair";"Ireland"
"RYR";"FKB";"2025-11-14";"23:20";"RYR1780";"BADEN BADEN-KARLSRUHE (FKB) (FKB)";"No informado";"Noche";"1780";"4166";"Karlsruhe Baden-Baden Airport";"Karlsruhe/Baden-Baden";"Germany";"EDSB";"48.7793998718";"8.08049964905";"408";"1";"Europe/Berlin";"Ryanair";"Ireland"
"RYR";"FMM";"2025-11-10";"08:20";"RYR1848";"MEMMINGEN (FMM)";"No informado";"Mañana";"1848";"3986";"Memmingen Allgau Airport";"Memmingen";"Germany";"EDJA";"47.988800048799995";"10.2395000458";"2077";"1";"Europe/Berlin";"Ryanair";"Ireland"
"RYR";"FMM";"2025-11-15";"18:20";"RYR1848";"MEMMINGEN (FMM)";"No informado";"Noche";"1848";"3986";"Memmingen Allgau Airport";"Memmingen";"Germany";"EDJA";"47.988800048799995";"10.2395000458";"2077";"1";"Europe/Berlin";"Ryanair";"Ireland"
"RYR";"BGY";"2025-11-14";"16:05";"RYR4631";"MILAN/BERGAMO (BGY)";"No informado";"Tarde";"4631";"1525";"Il Caravaggio International Airport";"Bergamo";"Italy";"LIME";"45.673901";"9.70417";"782";"1";"Europe/Rome";"Ryanair";"Ireland"
"RYR";"NAP";"2025-11-09";"19:15";"RYR6836";"NAPOLES (NAP)";"No informado";"Noche";"6836";"1561";"Naples International Airport";"Naples";"Italy";"LIRN";"40.886002";"14.2908";"294";"1";"Europe/Rome";"Ryanair";"Ireland"
"RYR";"NAP";"2025-11-13";"12:25";"RYR6836";"NAPOLES (NAP)";"No informado";"Tarde";"6836";"1561";"Naples International Airport";"Naples";"Italy";"LIRN";"40.886002";"14.2908";"294";"1";"Europe/Rome";"Ryanair";"Ireland"
"RYR";"BLQ";"2025-11-15";"07:55";"RYR620";"BOLONIA (BLQ)";"No informado";"Mañana";"620";"1538";"Bologna Guglielmo Marconi Airport";"Bologna";"Italy";"LIPE";"44.5354";"11.2887";"123";"1";"Europe/Rome";"Ryanair";"Ireland"
"RYR";"BLQ";"2025-11-14";"08:00";"RYR620";"BOLONIA (BLQ)";"No informado";"Mañana";"620";"1538";"Bologna Guglielmo Marconi Airport";"Bologna";"Italy";"LIPE";"44.5354";"11.2887";"123";"1";"Europe/Rome";"Ryanair";"Ireland"
"RYR";"BLQ";"2025-11-14";"19:20";"RYR6423";"BOLONIA (BLQ)";"No informado";"Noche";"6423";"1538";"Bologna Guglielmo Marconi Airport";"Bologna";"Italy";"LIPE";"44.5354";"11.2887";"123";"1";"Europe/Rome";"Ryanair";"Ireland"
"RYR";"PSR";"2025-11-15";"08:00";"RYR6415";"PESCARA (PSR)";"No informado";"Mañana";"6415";"1505";"Pescara International Airport";"Pescara";"Italy";"LIBP";"42.431702";"14.1811";"48";"1";"Europe/Rome";"Ryanair";"Ireland"
"RYR";"BLQ";"2025-11-09";"20:10";"RYR6423";"BOLONIA (BLQ)";"No informado";"Noche";"6423";"1538";"Bologna Guglielmo Marconi Airport";"Bologna";"Italy";"LIPE";"44.5354";"11.2887";"123";"1";"Europe/Rome";"Ryanair";"Ireland"
"RYR";"BLQ";"2025-11-13";"18:30";"RYR620";"BOLONIA (BLQ)";"No informado";"Noche";"620";"1538";"Bologna Guglielmo Marconi Airport";"Bologna";"Italy";"LIPE";"44.5354";"11.2887";"123";"1";"Europe/Rome";"Ryanair";"Ireland"
"RYR";"BLQ";"2025-11-10";"20:40";"RYR620";"BOLONIA (BLQ)";"No informado";"Noche";"620";"1538";"Bologna Guglielmo Marconi Airport";"Bologna";"Italy";"LIPE";"44.5354";"11.2887";"123";"1";"Europe/Rome";"Ryanair";"Ireland"
"RYR";"BER";"2025-11-10";"12:20";"RYR138";"BERLIN BRANDENBURG (BER)";"No informado";"Tarde";"138";NA;NA;NA;NA;NA;NA;NA;NA;NA;NA;"Ryanair";"Ireland"
"RYR";"OPO";"2025-11-10";"12:15";"RYR1710";"OPORTO (OPO)";"No informado";"Tarde";"1710";"1636";"Francisco de Sá Carneiro Airport";"Porto";"Portugal";"LPPR";"41.2481002808";"-8.68138980865";"228";"0";"Europe/Lisbon";"Ryanair";"Ireland"
"RYR";"BER";"2025-11-13";"13:30";"RYR138";"BERLIN BRANDENBURG (BER)";"No informado";"Tarde";"138";NA;NA;NA;NA;NA;NA;NA;NA;NA;NA;"Ryanair";"Ireland"
"RYR";"NAP";"2025-11-10";"12:45";"RYR6836";"NAPOLES (NAP)";"No informado";"Tarde";"6836";"1561";"Naples International Airport";"Naples";"Italy";"LIRN";"40.886002";"14.2908";"294";"1";"Europe/Rome";"Ryanair";"Ireland"
"RYR";"BRI";"2025-11-15";"19:20";"RYR1611";"BARI /PALESE (BRI)";"No informado";"Noche";"1611";"1501";"Bari Karol Wojtyła Airport";"Bari";"Italy";"LIBD";"41.138901";"16.760599";"177";"1";"Europe/Rome";"Ryanair";"Ireland"
"RYR";"BGY";"2025-11-13";"10:35";"RYR497";"MILAN/BERGAMO (BGY)";"No informado";"Mañana";"497";"1525";"Il Caravaggio International Airport";"Bergamo";"Italy";"LIME";"45.673901";"9.70417";"782";"1";"Europe/Rome";"Ryanair";"Ireland"
"RYR";"BGY";"2025-11-15";"11:00";"RYR4631";"MILAN/BERGAMO (BGY)";"No informado";"Mañana";"4631";"1525";"Il Caravaggio International Airport";"Bergamo";"Italy";"LIME";"45.673901";"9.70417";"782";"1";"Europe/Rome";"Ryanair";"Ireland"
"RYR";"BGY";"2025-11-12";"09:15";"RYR4631";"MILAN/BERGAMO (BGY)";"No informado";"Mañana";"4631";"1525";"Il Caravaggio International Airport";"Bergamo";"Italy";"LIME";"45.673901";"9.70417";"782";"1";"Europe/Rome";"Ryanair";"Ireland"
"RYR";"BGY";"2025-11-14";"22:15";"RYR4663";"MILAN/BERGAMO (BGY)";"No informado";"Noche";"4663";"1525";"Il Caravaggio International Airport";"Bergamo";"Italy";"LIME";"45.673901";"9.70417";"782";"1";"Europe/Rome";"Ryanair";"Ireland"
"RYR";"AGP";"2025-11-15";"15:40";"RYR681";"MALAGA-COSTA DEL SOL (AGP)";"No informado";"Tarde";"681";"1230";"Málaga Airport";"Malaga";"Spain";"LEMG";"36.67490005493164";"-4.499110221862793";"53";"1";"Europe/Madrid";"Ryanair";"Ireland"
"RYR";"IBZ";"2025-11-12";"20:05";"RYR616";"IBIZA (IBZ)";"No informado";"Noche";"616";"1225";"Ibiza Airport";"Ibiza";"Spain";"LEIB";"38.872898101800004";"1.3731199502899998";"24";"1";"Europe/Madrid";"Ryanair";"Ireland"
"RYR";"IBZ";"2025-11-09";"18:05";"RYR1699";"IBIZA (IBZ)";"No informado";"Noche";"1699";"1225";"Ibiza Airport";"Ibiza";"Spain";"LEIB";"38.872898101800004";"1.3731199502899998";"24";"1";"Europe/Madrid";"Ryanair";"Ireland"
"RYR";"LIS";"2025-11-14";"23:55";"RYR1768";"LISBOA (LIS)";"No informado";"Noche";"1768";"1638";"Humberto Delgado Airport (Lisbon Portela Airport)";"Lisbon";"Portugal";"LPPT";"38.7813";"-9.13592";"374";"0";"Europe/Lisbon";"Ryanair";"Ireland"
"RYR";"BRU";"2025-11-13";"16:40";"RYR2985";"BRUSELAS (BRU)";"No informado";"Tarde";"2985";"302";"Brussels Airport";"Brussels";"Belgium";"EBBR";"50.901401519800004";"4.48443984985";"184";"1";"Europe/Brussels";"Ryanair";"Ireland"
"RYR";"IBZ";"2025-11-15";"16:50";"RYR616";"IBIZA (IBZ)";"No informado";"Tarde";"616";"1225";"Ibiza Airport";"Ibiza";"Spain";"LEIB";"38.872898101800004";"1.3731199502899998";"24";"1";"Europe/Madrid";"Ryanair";"Ireland"
"RYR";"BGY";"2025-11-15";"16:30";"RYR497";"MILAN/BERGAMO (BGY)";"No informado";"Tarde";"497";"1525";"Il Caravaggio International Airport";"Bergamo";"Italy";"LIME";"45.673901";"9.70417";"782";"1";"Europe/Rome";"Ryanair";"Ireland"
"RYR";"BRU";"2025-11-14";"16:15";"RYR2985";"BRUSELAS (BRU)";"No informado";"Tarde";"2985";"302";"Brussels Airport";"Brussels";"Belgium";"EBBR";"50.901401519800004";"4.48443984985";"184";"1";"Europe/Brussels";"Ryanair";"Ireland"
"RYR";"DUB";"2025-11-14";"12:05";"RYR1740";"DUBLIN (DUB)";"No informado";"Tarde";"1740";"599";"Dublin Airport";"Dublin";"Ireland";"EIDW";"53.421299";"-6.27007";"242";"0";"Europe/Dublin";"Ryanair";"Ireland"
"RYR";"BRU";"2025-11-09";"20:50";"RYR2985";"BRUSELAS (BRU)";"No informado";"Noche";"2985";"302";"Brussels Airport";"Brussels";"Belgium";"EBBR";"50.901401519800004";"4.48443984985";"184";"1";"Europe/Brussels";"Ryanair";"Ireland"
"RYR";"IBZ";"2025-11-16";"09:40";"RYR616";"IBIZA (IBZ)";"No informado";"Mañana";"616";"1225";"Ibiza Airport";"Ibiza";"Spain";"LEIB";"38.872898101800004";"1.3731199502899998";"24";"1";"Europe/Madrid";"Ryanair";"Ireland"
"RYR";"DUB";"2025-11-10";"00:55";"RYR1772";"DUBLIN (DUB)";"No informado";"Madrugada";"1772";"599";"Dublin Airport";"Dublin";"Ireland";"EIDW";"53.421299";"-6.27007";"242";"0";"Europe/Dublin";"Ryanair";"Ireland"
"RYR";"DUB";"2025-11-13";"09:25";"RYR1740";"DUBLIN (DUB)";"No informado";"Mañana";"1740";"599";"Dublin Airport";"Dublin";"Ireland";"EIDW";"53.421299";"-6.27007";"242";"0";"Europe/Dublin";"Ryanair";"Ireland"
"RYR";"FEZ";"2025-11-14";"09:40";"RYR5372";"FEZ /SAIS (FEZ)";"No informado";"Mañana";"5372";"1066";"Saïss Airport";"Fes";"Morocco";"GMFF";"33.9272994995";"-4.977960109709999";"1900";"0";"Africa/Casablanca";"Ryanair";"Ireland"
"RYR";"BUD";"2025-11-15";"12:35";"RYR2301";"BUDAPEST (BUD)";"No informado";"Tarde";"2301";"1489";"Budapest Liszt Ferenc International Airport";"Budapest";"Hungary";"LHBP";"47.42976";"19.261093";"495";"1";"Europe/Budapest";"Ryanair";"Ireland"
"RYR";"BUD";"2025-11-14";"08:40";"RYR2301";"BUDAPEST (BUD)";"No informado";"Mañana";"2301";"1489";"Budapest Liszt Ferenc International Airport";"Budapest";"Hungary";"LHBP";"47.42976";"19.261093";"495";"1";"Europe/Budapest";"Ryanair";"Ireland"
"RYR";"FKB";"2025-11-12";"08:45";"RYR1780";"BADEN BADEN-KARLSRUHE (FKB) (FKB)";"No informado";"Mañana";"1780";"4166";"Karlsruhe Baden-Baden Airport";"Karlsruhe/Baden-Baden";"Germany";"EDSB";"48.7793998718";"8.08049964905";"408";"1";"Europe/Berlin";"Ryanair";"Ireland"
"RYR";"POZ";"2025-11-13";"09:45";"RYR4741";"POZNAN /LAWICA (POZ)";"No informado";"Mañana";"4741";"674";"Poznań-Ławica Airport";"Poznan";"Poland";"EPPO";"52.421001434299995";"16.8262996674";"308";"1";"Europe/Warsaw";"Ryanair";"Ireland"
"RYR";"BUD";"2025-11-16";"12:45";"RYR2301";"BUDAPEST (BUD)";"No informado";"Tarde";"2301";"1489";"Budapest Liszt Ferenc International Airport";"Budapest";"Hungary";"LHBP";"47.42976";"19.261093";"495";"1";"Europe/Budapest";"Ryanair";"Ireland"
"RYR";"BUD";"2025-11-10";"20:30";"RYR2301";"BUDAPEST (BUD)";"No informado";"Noche";"2301";"1489";"Budapest Liszt Ferenc International Airport";"Budapest";"Hungary";"LHBP";"47.42976";"19.261093";"495";"1";"Europe/Budapest";"Ryanair";"Ireland"
"RYR";"KRK";"2025-11-13";"10:20";"RYR2229";"CRACOVIA (KRK)";"No informado";"Mañana";"2229";"669";"Kraków John Paul II International Airport";"Krakow";"Poland";"EPKK";"50.077702";"19.7848";"791";"1";"Europe/Warsaw";"Ryanair";"Ireland"
"RYR";"TRN";"2025-11-10";"15:35";"RYR2259";"TURIN (TRN)";"No informado";"Tarde";"2259";"1526";"Turin Airport";"Torino";"Italy";"LIMF";"45.200802";"7.64963";"989";"1";"Europe/Rome";"Ryanair";"Ireland"
"RYR";"BVA";"2025-11-10";"14:55";"RYR9001";"PARIS /BEAUVAIS-TILLE (BVA)";"No informado";"Tarde";"9001";"1367";"Paris Beauvais Tillé Airport";"Beauvais";"France";"LFOB";"49.45439910888672";"2.1127800941467285";"359";"1";"Europe/Paris";"Ryanair";"Ireland"
"RYR";"BVA";"2025-11-14";"12:10";"RYR9001";"PARIS /BEAUVAIS-TILLE (BVA)";"No informado";"Tarde";"9001";"1367";"Paris Beauvais Tillé Airport";"Beauvais";"France";"LFOB";"49.45439910888672";"2.1127800941467285";"359";"1";"Europe/Paris";"Ryanair";"Ireland"
"RYR";"PMI";"2025-11-15";"22:25";"RYR7373";"PALMA DE MALLORCA (PMI)";"No informado";"Noche";"7373";"3998";"Palma De Mallorca Airport";"Palma de Mallorca";"Spain";"LEPA";"39.551700592";"2.73881006241";"27";"1";"Europe/Madrid";"Ryanair";"Ireland"
"RYR";"TRS";"2025-11-14";"16:20";"RYR618";"TRIESTE (TRS)";"No informado";"Tarde";"618";"1545";"Trieste–Friuli Venezia Giulia Airport";"Ronchi De Legionari";"Italy";"LIPQ";"45.827499";"13.4722";"39";"1";"Europe/Rome";"Ryanair";"Ireland"
"RYR";"TSF";"2025-11-14";"23:10";"RYR7267";"TREVISO/S.ANGELO (MIL) (TSF)";"No informado";"Noche";"7267";"1539";"Treviso-Sant'Angelo Airport";"Treviso";"Italy";"LIPH";"45.648399";"12.1944";"59";"1";"Europe/Rome";"Ryanair";"Ireland"
"RYR";"TSF";"2025-11-10";"22:55";"RYR6248";"TREVISO/S.ANGELO (MIL) (TSF)";"No informado";"Noche";"6248";"1539";"Treviso-Sant'Angelo Airport";"Treviso";"Italy";"LIPH";"45.648399";"12.1944";"59";"1";"Europe/Rome";"Ryanair";"Ireland"
"RYR";"TSF";"2025-11-14";"11:30";"RYR6248";"TREVISO/S.ANGELO (MIL) (TSF)";"No informado";"Mañana";"6248";"1539";"Treviso-Sant'Angelo Airport";"Treviso";"Italy";"LIPH";"45.648399";"12.1944";"59";"1";"Europe/Rome";"Ryanair";"Ireland"
"RYR";"TSF";"2025-11-09";"11:28";"RYR6248";"TREVISO/S.ANGELO (MIL) (TSF)";"Entrega equip.";"Mañana";"6248";"1539";"Treviso-Sant'Angelo Airport";"Treviso";"Italy";"LIPH";"45.648399";"12.1944";"59";"1";"Europe/Rome";"Ryanair";"Ireland"
"RYR";"PMI";"2025-11-13";"09:10";"RYR7215";"PALMA DE MALLORCA (PMI)";"No informado";"Mañana";"7215";"3998";"Palma De Mallorca Airport";"Palma de Mallorca";"Spain";"LEPA";"39.551700592";"2.73881006241";"27";"1";"Europe/Madrid";"Ryanair";"Ireland"
"RYR";"CGN";"2025-11-14";"08:10";"RYR2257";"KOELN/BONN (CGN)";"No informado";"Mañana";"2257";"344";"Cologne Bonn Airport";"Cologne";"Germany";"EDDK";"50.8658981323";"7.1427397728";"302";"1";"Europe/Berlin";"Ryanair";"Ireland"
"RYR";"TSF";"2025-11-11";"19:10";"RYR6248";"TREVISO/S.ANGELO (MIL) (TSF)";"No informado";"Noche";"6248";"1539";"Treviso-Sant'Angelo Airport";"Treviso";"Italy";"LIPH";"45.648399";"12.1944";"59";"1";"Europe/Rome";"Ryanair";"Ireland"
"RYR";"CGN";"2025-11-10";"11:35";"RYR2257";"KOELN/BONN (CGN)";"No informado";"Mañana";"2257";"344";"Cologne Bonn Airport";"Cologne";"Germany";"EDDK";"50.8658981323";"7.1427397728";"302";"1";"Europe/Berlin";"Ryanair";"Ireland"
"RYR";"CGN";"2025-11-15";"22:20";"RYR2257";"KOELN/BONN (CGN)";"No informado";"Noche";"2257";"344";"Cologne Bonn Airport";"Cologne";"Germany";"EDDK";"50.8658981323";"7.1427397728";"302";"1";"Europe/Berlin";"Ryanair";"Ireland"
"RYR";"AGP";"2025-11-15";"08:30";"RYR638";"MALAGA-COSTA DEL SOL (AGP)";"No informado";"Mañana";"638";"1230";"Málaga Airport";"Malaga";"Spain";"LEMG";"36.67490005493164";"-4.499110221862793";"53";"1";"Europe/Madrid";"Ryanair";"Ireland"
"RYR";"AGP";"2025-11-13";"20:40";"RYR645";"MALAGA-COSTA DEL SOL (AGP)";"No informado";"Noche";"645";"1230";"Málaga Airport";"Malaga";"Spain";"LEMG";"36.67490005493164";"-4.499110221862793";"53";"1";"Europe/Madrid";"Ryanair";"Ireland"
"RYR";"VIE";"2025-11-13";"09:55";"RYR802";"VIENA (VIE)";"No informado";"Mañana";"802";"1613";"Vienna International Airport";"Vienna";"Austria";"LOWW";"48.110298156738";"16.569700241089";"600";"1";"Europe/Vienna";"Ryanair";"Ireland"
"RYR";"VIE";"2025-11-14";"08:55";"RYR802";"VIENA (VIE)";"No informado";"Mañana";"802";"1613";"Vienna International Airport";"Vienna";"Austria";"LOWW";"48.110298156738";"16.569700241089";"600";"1";"Europe/Vienna";"Ryanair";"Ireland"
"RYR";"VIE";"2025-11-10";"19:10";"RYR7340";"VIENA (VIE)";"No informado";"Noche";"7340";"1613";"Vienna International Airport";"Vienna";"Austria";"LOWW";"48.110298156738";"16.569700241089";"600";"1";"Europe/Vienna";"Ryanair";"Ireland"
"RYR";"CRL";"2025-11-14";"20:00";"RYR2147";"BRUSELAS /CHARLEROI (CRL)";"No informado";"Noche";"2147";"304";"Brussels South Charleroi Airport";"Charleroi";"Belgium";"EBCI";"50.459202";"4.45382";"614";"1";"Europe/Brussels";"Ryanair";"Ireland"
"RYR";"CRL";"2025-11-10";"00:10";"RYR3791";"BRUSELAS /CHARLEROI (CRL)";"No informado";"Madrugada";"3791";"304";"Brussels South Charleroi Airport";"Charleroi";"Belgium";"EBCI";"50.459202";"4.45382";"614";"1";"Europe/Brussels";"Ryanair";"Ireland"
"RYR";"VIE";"2025-11-10";"08:45";"RYR802";"VIENA (VIE)";"No informado";"Mañana";"802";"1613";"Vienna International Airport";"Vienna";"Austria";"LOWW";"48.110298156738";"16.569700241089";"600";"1";"Europe/Vienna";"Ryanair";"Ireland"
"RYR";"FCO";"2025-11-09";"13:35";"RYR993";"ROMA /FIUMICINO (FCO)";"No informado";"Tarde";"993";"1555";"Leonardo da Vinci–Fiumicino Airport";"Rome";"Italy";"LIRF";"41.8002778";"12.2388889";"13";"1";"Europe/Rome";"Ryanair";"Ireland"
"RYR";"CRL";"2025-11-13";"23:50";"RYR1687";"BRUSELAS /CHARLEROI (CRL)";"No informado";"Noche";"1687";"304";"Brussels South Charleroi Airport";"Charleroi";"Belgium";"EBCI";"50.459202";"4.45382";"614";"1";"Europe/Brussels";"Ryanair";"Ireland"
"RYR";"FCO";"2025-11-13";"12:15";"RYR1003";"ROMA /FIUMICINO (FCO)";"No informado";"Tarde";"1003";"1555";"Leonardo da Vinci–Fiumicino Airport";"Rome";"Italy";"LIRF";"41.8002778";"12.2388889";"13";"1";"Europe/Rome";"Ryanair";"Ireland"
"RYR";"CRL";"2025-11-15";"23:10";"RYR2147";"BRUSELAS /CHARLEROI (CRL)";"No informado";"Noche";"2147";"304";"Brussels South Charleroi Airport";"Charleroi";"Belgium";"EBCI";"50.459202";"4.45382";"614";"1";"Europe/Brussels";"Ryanair";"Ireland"
"RYR";"FCO";"2025-11-12";"17:10";"RYR993";"ROMA /FIUMICINO (FCO)";"No informado";"Tarde";"993";"1555";"Leonardo da Vinci–Fiumicino Airport";"Rome";"Italy";"LIRF";"41.8002778";"12.2388889";"13";"1";"Europe/Rome";"Ryanair";"Ireland"
"RYR";"PMI";"2025-11-10";"15:15";"RYR7215";"PALMA DE MALLORCA (PMI)";"No informado";"Tarde";"7215";"3998";"Palma De Mallorca Airport";"Palma de Mallorca";"Spain";"LEPA";"39.551700592";"2.73881006241";"27";"1";"Europe/Madrid";"Ryanair";"Ireland"
"RYR";"LIS";"2025-11-10";"12:20";"RYR1768";"LISBOA (LIS)";"No informado";"Tarde";"1768";"1638";"Humberto Delgado Airport (Lisbon Portela Airport)";"Lisbon";"Portugal";"LPPT";"38.7813";"-9.13592";"374";"0";"Europe/Lisbon";"Ryanair";"Ireland"
"RYR";"FCO";"2025-11-13";"18:10";"RYR993";"ROMA /FIUMICINO (FCO)";"No informado";"Noche";"993";"1555";"Leonardo da Vinci–Fiumicino Airport";"Rome";"Italy";"LIRF";"41.8002778";"12.2388889";"13";"1";"Europe/Rome";"Ryanair";"Ireland"
"RYR";"FCO";"2025-11-10";"23:20";"RYR999";"ROMA /FIUMICINO (FCO)";"No informado";"Noche";"999";"1555";"Leonardo da Vinci–Fiumicino Airport";"Rome";"Italy";"LIRF";"41.8002778";"12.2388889";"13";"1";"Europe/Rome";"Ryanair";"Ireland"
"RYR";"PMO";"2025-11-13";"21:10";"RYR4486";"PALERMO /PUNTA RAISI (PMO)";"No informado";"Noche";"4486";"1512";"Falcone–Borsellino Airport";"Palermo";"Italy";"LICJ";"38.175999";"13.091";"65";"1";"Europe/Rome";"Ryanair";"Ireland"
"RYR";"BUD";"2025-11-09";"12:25";"RYR2301";"BUDAPEST (BUD)";"En vuelo";"Tarde";"2301";"1489";"Budapest Liszt Ferenc International Airport";"Budapest";"Hungary";"LHBP";"47.42976";"19.261093";"495";"1";"Europe/Budapest";"Ryanair";"Ireland"
"RYR";"DUB";"2025-11-15";"11:55";"RYR1740";"DUBLIN (DUB)";"No informado";"Mañana";"1740";"599";"Dublin Airport";"Dublin";"Ireland";"EIDW";"53.421299";"-6.27007";"242";"0";"Europe/Dublin";"Ryanair";"Ireland"
"RYR";"MXP";"2025-11-15";"16:00";"RYR1444";"MILAN /MALPENSA (MXP)";"No informado";"Tarde";"1444";"1524";"Malpensa International Airport";"Milano";"Italy";"LIMC";"45.6306";"8.72811";"768";"1";"Europe/Rome";"Ryanair";"Ireland"
"RYR";"POZ";"2025-11-10";"09:05";"RYR4741";"POZNAN /LAWICA (POZ)";"No informado";"Mañana";"4741";"674";"Poznań-Ławica Airport";"Poznan";"Poland";"EPPO";"52.421001434299995";"16.8262996674";"308";"1";"Europe/Warsaw";"Ryanair";"Ireland"
"RYR";"MXP";"2025-11-09";"21:15";"RYR7470";"MILAN /MALPENSA (MXP)";"No informado";"Noche";"7470";"1524";"Malpensa International Airport";"Milano";"Italy";"LIMC";"45.6306";"8.72811";"768";"1";"Europe/Rome";"Ryanair";"Ireland"
"RYR";"MXP";"2025-11-14";"23:10";"RYR7470";"MILAN /MALPENSA (MXP)";"No informado";"Noche";"7470";"1524";"Malpensa International Airport";"Milano";"Italy";"LIMC";"45.6306";"8.72811";"768";"1";"Europe/Rome";"Ryanair";"Ireland"
"RYR";"PSA";"2025-11-13";"15:25";"RYR952";"PISA / GALILEO GALILEI (PSA)";"No informado";"Tarde";"952";"1562";"Pisa International Airport";"Pisa";"Italy";"LIRP";"43.683899";"10.3927";"6";"1";"Europe/Rome";"Ryanair";"Ireland"
"RYR";"MXP";"2025-11-14";"16:50";"RYR1444";"MILAN /MALPENSA (MXP)";"No informado";"Tarde";"1444";"1524";"Malpensa International Airport";"Milano";"Italy";"LIMC";"45.6306";"8.72811";"768";"1";"Europe/Rome";"Ryanair";"Ireland"
"RYR";"NAP";"2025-11-15";"20:00";"RYR6836";"NAPOLES (NAP)";"No informado";"Noche";"6836";"1561";"Naples International Airport";"Naples";"Italy";"LIRN";"40.886002";"14.2908";"294";"1";"Europe/Rome";"Ryanair";"Ireland"
"RYR";"PSA";"2025-11-10";"13:00";"RYR952";"PISA / GALILEO GALILEI (PSA)";"No informado";"Tarde";"952";"1562";"Pisa International Airport";"Pisa";"Italy";"LIRP";"43.683899";"10.3927";"6";"1";"Europe/Rome";"Ryanair";"Ireland"
"RYR";"EDI";"2025-11-09";"16:40";"RYR1092";"EDIMBURGO (EDI)";"No informado";"Tarde";"1092";"535";"Edinburgh Airport";"Edinburgh";"United Kingdom";"EGPH";"55.95000076293945";"-3.372499942779541";"135";"0";"Europe/London";"Ryanair";"Ireland"
"RYR";"KRK";"2025-11-16";"13:15";"RYR2229";"CRACOVIA (KRK)";"No informado";"Tarde";"2229";"669";"Kraków John Paul II International Airport";"Krakow";"Poland";"EPKK";"50.077702";"19.7848";"791";"1";"Europe/Warsaw";"Ryanair";"Ireland"
"RYR";"NTE";"2025-11-10";"09:55";"RYR1714";"NANTES-ATLANTIQUE (NTE)";"No informado";"Mañana";"1714";"1418";"Nantes Atlantique Airport";"Nantes";"France";"LFRS";"47.153198242200006";"-1.61073005199";"90";"1";"Europe/Paris";"Ryanair";"Ireland"
"RYR";"PSA";"2025-11-11";"10:55";"RYR952";"PISA / GALILEO GALILEI (PSA)";"No informado";"Mañana";"952";"1562";"Pisa International Airport";"Pisa";"Italy";"LIRP";"43.683899";"10.3927";"6";"1";"Europe/Rome";"Ryanair";"Ireland"
"RYR";"PSR";"2025-11-10";"21:45";"RYR6415";"PESCARA (PSR)";"No informado";"Noche";"6415";"1505";"Pescara International Airport";"Pescara";"Italy";"LIBP";"42.431702";"14.1811";"48";"1";"Europe/Rome";"Ryanair";"Ireland"
"RYR";"NUE";"2025-11-10";"18:35";"RYR1131";"NUREMBERG (NUE)";"No informado";"Noche";"1131";"347";"Nuremberg Airport";"Nuernberg";"Germany";"EDDN";"49.498699";"11.078056";"1046";"1";"Europe/Berlin";"Ryanair";"Ireland"
"RYR";"RAK";"2025-11-09";"15:10";"RYR2217";"MARRAKECH (RAK)";"No informado";"Tarde";"2217";"1075";"Menara Airport";"Marrakech";"Morocco";"GMMX";"31.606899261499997";"-8.03629970551";"1545";"0";"Africa/Casablanca";"Ryanair";"Ireland"
"RYR";"RAK";"2025-11-15";"16:35";"RYR2217";"MARRAKECH (RAK)";"No informado";"Tarde";"2217";"1075";"Menara Airport";"Marrakech";"Morocco";"GMMX";"31.606899261499997";"-8.03629970551";"1545";"0";"Africa/Casablanca";"Ryanair";"Ireland"
"RYR";"RAK";"2025-11-10";"18:55";"RYR2217";"MARRAKECH (RAK)";"No informado";"Noche";"2217";"1075";"Menara Airport";"Marrakech";"Morocco";"GMMX";"31.606899261499997";"-8.03629970551";"1545";"0";"Africa/Casablanca";"Ryanair";"Ireland"
"RYR";"EIN";"2025-11-13";"23:30";"RYR1718";"EINDHOVEN (EIN)";"No informado";"Noche";"1718";"585";"Eindhoven Airport";"Eindhoven";"Netherlands";"EHEH";"51.4500999451";"5.37452983856";"74";"1";"Europe/Amsterdam";"Ryanair";"Ireland"
"RYR";"RAK";"2025-11-14";"17:10";"RYR9331";"MARRAKECH (RAK)";"No informado";"Tarde";"9331";"1075";"Menara Airport";"Marrakech";"Morocco";"GMMX";"31.606899261499997";"-8.03629970551";"1545";"0";"Africa/Casablanca";"Ryanair";"Ireland"
"RYR";"EIN";"2025-11-10";"22:25";"RYR1718";"EINDHOVEN (EIN)";"No informado";"Noche";"1718";"585";"Eindhoven Airport";"Eindhoven";"Netherlands";"EHEH";"51.4500999451";"5.37452983856";"74";"1";"Europe/Amsterdam";"Ryanair";"Ireland"
"RYR";"RAK";"2025-11-16";"10:35";"RYR5034";"MARRAKECH (RAK)";"No informado";"Mañana";"5034";"1075";"Menara Airport";"Marrakech";"Morocco";"GMMX";"31.606899261499997";"-8.03629970551";"1545";"0";"Africa/Casablanca";"Ryanair";"Ireland"
"RYR";"FCO";"2025-11-15";"11:40";"RYR993";"ROMA /FIUMICINO (FCO)";"No informado";"Mañana";"993";"1555";"Leonardo da Vinci–Fiumicino Airport";"Rome";"Italy";"LIRF";"41.8002778";"12.2388889";"13";"1";"Europe/Rome";"Ryanair";"Ireland"
"RYR";"FCO";"2025-11-16";"10:45";"RYR1003";"ROMA /FIUMICINO (FCO)";"No informado";"Mañana";"1003";"1555";"Leonardo da Vinci–Fiumicino Airport";"Rome";"Italy";"LIRF";"41.8002778";"12.2388889";"13";"1";"Europe/Rome";"Ryanair";"Ireland"
"RYR";"FCO";"2025-11-14";"17:50";"RYR999";"ROMA /FIUMICINO (FCO)";"No informado";"Tarde";"999";"1555";"Leonardo da Vinci–Fiumicino Airport";"Rome";"Italy";"LIRF";"41.8002778";"12.2388889";"13";"1";"Europe/Rome";"Ryanair";"Ireland"
"RYR";"FCO";"2025-11-09";"17:20";"RYR999";"ROMA /FIUMICINO (FCO)";"No informado";"Tarde";"999";"1555";"Leonardo da Vinci–Fiumicino Airport";"Rome";"Italy";"LIRF";"41.8002778";"12.2388889";"13";"1";"Europe/Rome";"Ryanair";"Ireland"
"RYR";"FCO";"2025-11-11";"13:05";"RYR993";"ROMA /FIUMICINO (FCO)";"No informado";"Tarde";"993";"1555";"Leonardo da Vinci–Fiumicino Airport";"Rome";"Italy";"LIRF";"41.8002778";"12.2388889";"13";"1";"Europe/Rome";"Ryanair";"Ireland"
"RYR";"BGY";"2025-11-10";"17:25";"RYR4631";"MILAN/BERGAMO (BGY)";"No informado";"Tarde";"4631";"1525";"Il Caravaggio International Airport";"Bergamo";"Italy";"LIME";"45.673901";"9.70417";"782";"1";"Europe/Rome";"Ryanair";"Ireland"
"RYR";"MRS";"2025-11-14";"16:55";"RYR1770";"MARSELLA (MRS)";"No informado";"Tarde";"1770";"1353";"Marseille Provence Airport";"Marseille";"France";"LFML";"43.439271922";"5.22142410278";"74";"1";"Europe/Paris";"Ryanair";"Ireland"
"RYR";"SDR";"2025-11-09";"14:55";"RYR2215";"SANTANDER-SEVE BALLESTEROS (SDR)";"No informado";"Tarde";"2215";"1251";"Santander Airport";"Santander";"Spain";"LEXJ";"43.427101135253906";"-3.82000994682312";"16";"1";"Europe/Madrid";"Ryanair";"Ireland"
"RYR";"FCO";"2025-11-14";"11:10";"RYR993";"ROMA /FIUMICINO (FCO)";"No informado";"Mañana";"993";"1555";"Leonardo da Vinci–Fiumicino Airport";"Rome";"Italy";"LIRF";"41.8002778";"12.2388889";"13";"1";"Europe/Rome";"Ryanair";"Ireland"
"RYR";"SOF";"2025-11-16";"00:25";"RYR9237";"SOFIA (SOF)";"No informado";"Madrugada";"9237";"1194";"Sofia Airport";"Sofia";"Bulgaria";"LBSF";"42.696693420410156";"23.411436080932617";"1742";"2";"Europe/Sofia";"Ryanair";"Ireland"
"RYR";"BGY";"2025-11-13";"18:25";"RYR4728";"MILAN/BERGAMO (BGY)";"No informado";"Noche";"4728";"1525";"Il Caravaggio International Airport";"Bergamo";"Italy";"LIME";"45.673901";"9.70417";"782";"1";"Europe/Rome";"Ryanair";"Ireland"
"RYR";"IBZ";"2025-11-10";"18:00";"RYR616";"IBIZA (IBZ)";"No informado";"Noche";"616";"1225";"Ibiza Airport";"Ibiza";"Spain";"LEIB";"38.872898101800004";"1.3731199502899998";"24";"1";"Europe/Madrid";"Ryanair";"Ireland"
"RYR";"FCO";"2025-11-13";"07:50";"RYR999";"ROMA /FIUMICINO (FCO)";"No informado";"Mañana";"999";"1555";"Leonardo da Vinci–Fiumicino Airport";"Rome";"Italy";"LIRF";"41.8002778";"12.2388889";"13";"1";"Europe/Rome";"Ryanair";"Ireland"
"RYR";"BGY";"2025-11-12";"17:20";"RYR497";"MILAN/BERGAMO (BGY)";"No informado";"Tarde";"497";"1525";"Il Caravaggio International Airport";"Bergamo";"Italy";"LIME";"45.673901";"9.70417";"782";"1";"Europe/Rome";"Ryanair";"Ireland"
"RYR";"IBZ";"2025-11-14";"19:00";"RYR1699";"IBIZA (IBZ)";"No informado";"Noche";"1699";"1225";"Ibiza Airport";"Ibiza";"Spain";"LEIB";"38.872898101800004";"1.3731199502899998";"24";"1";"Europe/Madrid";"Ryanair";"Ireland"
"RYR";"TFS";"2025-11-15";"22:40";"RYR1971";"TENERIFE SUR (TFS)";"No informado";"Noche";"1971";"1056";"Tenerife South Airport";"Tenerife";"Spain";"GCTS";"28.044500351";"-16.5725002289";"209";"0";"Atlantic/Canary";"Ryanair";"Ireland"
"RYR";"BHX";"2025-11-10";"15:35";"RYR9380";"BIRMINGHAM / INTERNACIONAL (BHX)";"No informado";"Tarde";"9380";"469";"Birmingham International Airport";"Birmingham";"United Kingdom";"EGBB";"52.453899383499994";"-1.74802994728";"327";"0";"Europe/London";"Ryanair";"Ireland"
"RYR";"LPA";"2025-11-14";"23:30";"RYR7201";"GRAN CANARIA (LPA)";"No informado";"Noche";"7201";"1054";"Gran Canaria Airport";"Gran Canaria";"Spain";"GCLP";"27.931900024414062";"-15.38659954071045";"78";"0";"Atlantic/Canary";"Ryanair";"Ireland"
"RYR";"MXP";"2025-11-15";"23:45";"RYR7470";"MILAN /MALPENSA (MXP)";"No informado";"Noche";"7470";"1524";"Malpensa International Airport";"Milano";"Italy";"LIMC";"45.6306";"8.72811";"768";"1";"Europe/Rome";"Ryanair";"Ireland"
"RYR";"IBZ";"2025-11-13";"23:35";"RYR616";"IBIZA (IBZ)";"No informado";"Noche";"616";"1225";"Ibiza Airport";"Ibiza";"Spain";"LEIB";"38.872898101800004";"1.3731199502899998";"24";"1";"Europe/Madrid";"Ryanair";"Ireland"
"RYR";"MXP";"2025-11-12";"09:10";"RYR1444";"MILAN /MALPENSA (MXP)";"No informado";"Mañana";"1444";"1524";"Malpensa International Airport";"Milano";"Italy";"LIMC";"45.6306";"8.72811";"768";"1";"Europe/Rome";"Ryanair";"Ireland"
"RYR";"BUD";"2025-11-13";"14:00";"RYR2301";"BUDAPEST (BUD)";"No informado";"Tarde";"2301";"1489";"Budapest Liszt Ferenc International Airport";"Budapest";"Hungary";"LHBP";"47.42976";"19.261093";"495";"1";"Europe/Budapest";"Ryanair";"Ireland"
"RYR";"TNG";"2025-11-13";"09:05";"RYR5540";"TANGER (TNG)";"No informado";"Mañana";"5540";"1080";"Ibn Batouta Airport";"Tanger";"Morocco";"GMTT";"35.726898193400004";"-5.91689014435";"62";"0";"Africa/Casablanca";"Ryanair";"Ireland"
"RYR";"MXP";"2025-11-10";"21:55";"RYR7470";"MILAN /MALPENSA (MXP)";"No informado";"Noche";"7470";"1524";"Malpensa International Airport";"Milano";"Italy";"LIMC";"45.6306";"8.72811";"768";"1";"Europe/Rome";"Ryanair";"Ireland"
"RYR";"KRK";"2025-11-11";"10:50";"RYR2229";"CRACOVIA (KRK)";"No informado";"Mañana";"2229";"669";"Kraków John Paul II International Airport";"Krakow";"Poland";"EPKK";"50.077702";"19.7848";"791";"1";"Europe/Warsaw";"Ryanair";"Ireland"
"RYR";"TRN";"2025-11-09";"15:10";"RYR2259";"TURIN (TRN)";"No informado";"Tarde";"2259";"1526";"Turin Airport";"Torino";"Italy";"LIMF";"45.200802";"7.64963";"989";"1";"Europe/Rome";"Ryanair";"Ireland"
"RYR";"BRI";"2025-11-13";"11:35";"RYR1611";"BARI /PALESE (BRI)";"No informado";"Mañana";"1611";"1501";"Bari Karol Wojtyła Airport";"Bari";"Italy";"LIBD";"41.138901";"16.760599";"177";"1";"Europe/Rome";"Ryanair";"Ireland"
"RYR";"SVQ";"2025-11-14";"14:55";"RYR2206";"SEVILLA (SVQ)";"No informado";"Tarde";"2206";"1253";"Sevilla Airport";"Sevilla";"Spain";"LEZL";"37.417999267578125";"-5.8931097984313965";"112";"1";"Europe/Madrid";"Ryanair";"Ireland"
"RYR";"PSA";"2025-11-14";"17:40";"RYR952";"PISA / GALILEO GALILEI (PSA)";"No informado";"Tarde";"952";"1562";"Pisa International Airport";"Pisa";"Italy";"LIRP";"43.683899";"10.3927";"6";"1";"Europe/Rome";"Ryanair";"Ireland"
"RYR";"TRS";"2025-11-10";"14:35";"RYR618";"TRIESTE (TRS)";"No informado";"Tarde";"618";"1545";"Trieste–Friuli Venezia Giulia Airport";"Ronchi De Legionari";"Italy";"LIPQ";"45.827499";"13.4722";"39";"1";"Europe/Rome";"Ryanair";"Ireland"
"RYR";"NTE";"2025-11-15";"18:30";"RYR1714";"NANTES-ATLANTIQUE (NTE)";"No informado";"Noche";"1714";"1418";"Nantes Atlantique Airport";"Nantes";"France";"LFRS";"47.153198242200006";"-1.61073005199";"90";"1";"Europe/Paris";"Ryanair";"Ireland"
"RYR";"NUE";"2025-11-14";"11:00";"RYR1131";"NUREMBERG (NUE)";"No informado";"Mañana";"1131";"347";"Nuremberg Airport";"Nuernberg";"Germany";"EDDN";"49.498699";"11.078056";"1046";"1";"Europe/Berlin";"Ryanair";"Ireland"
"RYR";"SVQ";"2025-11-10";"22:35";"RYR2208";"SEVILLA (SVQ)";"No informado";"Noche";"2208";"1253";"Sevilla Airport";"Sevilla";"Spain";"LEZL";"37.417999267578125";"-5.8931097984313965";"112";"1";"Europe/Madrid";"Ryanair";"Ireland"
"RYR";"NUE";"2025-11-15";"12:05";"RYR1131";"NUREMBERG (NUE)";"No informado";"Tarde";"1131";"347";"Nuremberg Airport";"Nuernberg";"Germany";"EDDN";"49.498699";"11.078056";"1046";"1";"Europe/Berlin";"Ryanair";"Ireland"
"RYR";"OPO";"2025-11-09";"16:20";"RYR1710";"OPORTO (OPO)";"No informado";"Tarde";"1710";"1636";"Francisco de Sá Carneiro Airport";"Porto";"Portugal";"LPPR";"41.2481002808";"-8.68138980865";"228";"0";"Europe/Lisbon";"Ryanair";"Ireland"
"RYR";"OPO";"2025-11-12";"15:15";"RYR1710";"OPORTO (OPO)";"No informado";"Tarde";"1710";"1636";"Francisco de Sá Carneiro Airport";"Porto";"Portugal";"LPPR";"41.2481002808";"-8.68138980865";"228";"0";"Europe/Lisbon";"Ryanair";"Ireland"
"RYR";"BLQ";"2025-11-11";"11:05";"RYR6423";"BOLONIA (BLQ)";"No informado";"Mañana";"6423";"1538";"Bologna Guglielmo Marconi Airport";"Bologna";"Italy";"LIPE";"44.5354";"11.2887";"123";"1";"Europe/Rome";"Ryanair";"Ireland"
"RYR";"SVQ";"2025-11-13";"17:00";"RYR2206";"SEVILLA (SVQ)";"No informado";"Tarde";"2206";"1253";"Sevilla Airport";"Sevilla";"Spain";"LEZL";"37.417999267578125";"-5.8931097984313965";"112";"1";"Europe/Madrid";"Ryanair";"Ireland"
"RYR";"OPO";"2025-11-14";"21:55";"RYR2646";"OPORTO (OPO)";"No informado";"Noche";"2646";"1636";"Francisco de Sá Carneiro Airport";"Porto";"Portugal";"LPPR";"41.2481002808";"-8.68138980865";"228";"0";"Europe/Lisbon";"Ryanair";"Ireland"
"RYR";"STN";"2025-11-14";"23:35";"RYR6325";"LONDRES /STANSTED (STN)";"No informado";"Noche";"6325";"548";"London Stansted Airport";"London";"United Kingdom";"EGSS";"51.8849983215";"0.234999999404";"348";"0";"Europe/London";"Ryanair";"Ireland"
"RYR";"OPO";"2025-11-14";"09:00";"RYR1710";"OPORTO (OPO)";"No informado";"Mañana";"1710";"1636";"Francisco de Sá Carneiro Airport";"Porto";"Portugal";"LPPR";"41.2481002808";"-8.68138980865";"228";"0";"Europe/Lisbon";"Ryanair";"Ireland"
"RYR";"BRI";"2025-11-10";"22:10";"RYR1611";"BARI /PALESE (BRI)";"No informado";"Noche";"1611";"1501";"Bari Karol Wojtyła Airport";"Bari";"Italy";"LIBD";"41.138901";"16.760599";"177";"1";"Europe/Rome";"Ryanair";"Ireland"
"RYR";"BRI";"2025-11-09";"22:55";"RYR1611";"BARI /PALESE (BRI)";"No informado";"Noche";"1611";"1501";"Bari Karol Wojtyła Airport";"Bari";"Italy";"LIBD";"41.138901";"16.760599";"177";"1";"Europe/Rome";"Ryanair";"Ireland"
"RYR";"ORK";"2025-11-15";"09:20";"RYR8109";"CORK (ORK)";"No informado";"Mañana";"8109";"596";"Cork Airport";"Cork";"Ireland";"EICK";"51.84130096435547";"-8.491109848022461";"502";"0";"Europe/Dublin";"Ryanair";"Ireland"
"RYR";"SVQ";"2025-11-11";"12:05";"RYR2206";"SEVILLA (SVQ)";"No informado";"Tarde";"2206";"1253";"Sevilla Airport";"Sevilla";"Spain";"LEZL";"37.417999267578125";"-5.8931097984313965";"112";"1";"Europe/Madrid";"Ryanair";"Ireland"
"RYR";"SVQ";"2025-11-12";"08:35";"RYR2206";"SEVILLA (SVQ)";"No informado";"Mañana";"2206";"1253";"Sevilla Airport";"Sevilla";"Spain";"LEZL";"37.417999267578125";"-5.8931097984313965";"112";"1";"Europe/Madrid";"Ryanair";"Ireland"
"RYR";"SVQ";"2025-11-15";"22:45";"RYR2208";"SEVILLA (SVQ)";"No informado";"Noche";"2208";"1253";"Sevilla Airport";"Sevilla";"Spain";"LEZL";"37.417999267578125";"-5.8931097984313965";"112";"1";"Europe/Madrid";"Ryanair";"Ireland"
"RYR";"SCQ";"2025-11-12";"12:45";"RYR705";"SANTIAGO-ROSALÍA DE CASTRO (SCQ)";"No informado";"Tarde";"705";"1243";"Santiago de Compostela Airport";"Santiago";"Spain";"LEST";"42.89630126953125";"-8.415140151977539";"1213";"1";"Europe/Madrid";"Ryanair";"Ireland"
"RYR";"MRS";"2025-11-10";"21:40";"RYR1770";"MARSELLA (MRS)";"No informado";"Noche";"1770";"1353";"Marseille Provence Airport";"Marseille";"France";"LFML";"43.439271922";"5.22142410278";"74";"1";"Europe/Paris";"Ryanair";"Ireland"
"RYR";"SDR";"2025-11-14";"13:25";"RYR2215";"SANTANDER-SEVE BALLESTEROS (SDR)";"No informado";"Tarde";"2215";"1251";"Santander Airport";"Santander";"Spain";"LEXJ";"43.427101135253906";"-3.82000994682312";"16";"1";"Europe/Madrid";"Ryanair";"Ireland"
"RYR";"SOF";"2025-11-12";"13:05";"RYR9237";"SOFIA (SOF)";"No informado";"Tarde";"9237";"1194";"Sofia Airport";"Sofia";"Bulgaria";"LBSF";"42.696693420410156";"23.411436080932617";"1742";"2";"Europe/Sofia";"Ryanair";"Ireland"
"RYR";"LIS";"2025-11-11";"13:30";"RYR1768";"LISBOA (LIS)";"No informado";"Tarde";"1768";"1638";"Humberto Delgado Airport (Lisbon Portela Airport)";"Lisbon";"Portugal";"LPPT";"38.7813";"-9.13592";"374";"0";"Europe/Lisbon";"Ryanair";"Ireland"
"RYR";"STN";"2025-11-15";"23:05";"RYR1736";"LONDRES /STANSTED (STN)";"No informado";"Noche";"1736";"548";"London Stansted Airport";"London";"United Kingdom";"EGSS";"51.8849983215";"0.234999999404";"348";"0";"Europe/London";"Ryanair";"Ireland"
"RYR";"STN";"2025-11-11";"20:35";"RYR643";"LONDRES /STANSTED (STN)";"No informado";"Noche";"643";"548";"London Stansted Airport";"London";"United Kingdom";"EGSS";"51.8849983215";"0.234999999404";"348";"0";"Europe/London";"Ryanair";"Ireland"
"RYR";"MXP";"2025-11-10";"10:15";"RYR1444";"MILAN /MALPENSA (MXP)";"No informado";"Mañana";"1444";"1524";"Malpensa International Airport";"Milano";"Italy";"LIMC";"45.6306";"8.72811";"768";"1";"Europe/Rome";"Ryanair";"Ireland"
"RYR";"MXP";"2025-11-16";"07:55";"RYR1444";"MILAN /MALPENSA (MXP)";"No informado";"Mañana";"1444";"1524";"Malpensa International Airport";"Milano";"Italy";"LIMC";"45.6306";"8.72811";"768";"1";"Europe/Rome";"Ryanair";"Ireland"
"RYR";"IBZ";"2025-11-14";"10:25";"RYR616";"IBIZA (IBZ)";"No informado";"Mañana";"616";"1225";"Ibiza Airport";"Ibiza";"Spain";"LEIB";"38.872898101800004";"1.3731199502899998";"24";"1";"Europe/Madrid";"Ryanair";"Ireland"
"RYR";"MXP";"2025-11-11";"21:45";"RYR1444";"MILAN /MALPENSA (MXP)";"No informado";"Noche";"1444";"1524";"Malpensa International Airport";"Milano";"Italy";"LIMC";"45.6306";"8.72811";"768";"1";"Europe/Rome";"Ryanair";"Ireland"
"RYR";"TLS";"2025-11-14";"17:45";"RYR2080";"TOULOUSE (TLS)";"No informado";"Tarde";"2080";"1273";"Toulouse-Blagnac Airport";"Toulouse";"France";"LFBO";"43.629101";"1.36382";"499";"1";"Europe/Paris";"Ryanair";"Ireland"
"RYR";"PMO";"2025-11-09";"18:40";"RYR4486";"PALERMO /PUNTA RAISI (PMO)";"No informado";"Noche";"4486";"1512";"Falcone–Borsellino Airport";"Palermo";"Italy";"LICJ";"38.175999";"13.091";"65";"1";"Europe/Rome";"Ryanair";"Ireland"
"RYR";"TNG";"2025-11-14";"14:15";"RYR5540";"TANGER (TNG)";"No informado";"Tarde";"5540";"1080";"Ibn Batouta Airport";"Tanger";"Morocco";"GMTT";"35.726898193400004";"-5.91689014435";"62";"0";"Africa/Casablanca";"Ryanair";"Ireland"
"RYR";"STN";"2025-11-10";"23:15";"RYR6325";"LONDRES /STANSTED (STN)";"No informado";"Noche";"6325";"548";"London Stansted Airport";"London";"United Kingdom";"EGSS";"51.8849983215";"0.234999999404";"348";"0";"Europe/London";"Ryanair";"Ireland"
"RYR";"STN";"2025-11-10";"12:10";"RYR1736";"LONDRES /STANSTED (STN)";"No informado";"Tarde";"1736";"548";"London Stansted Airport";"London";"United Kingdom";"EGSS";"51.8849983215";"0.234999999404";"348";"0";"Europe/London";"Ryanair";"Ireland"
"RYR";"KRK";"2025-11-10";"19:20";"RYR2229";"CRACOVIA (KRK)";"No informado";"Noche";"2229";"669";"Kraków John Paul II International Airport";"Krakow";"Poland";"EPKK";"50.077702";"19.7848";"791";"1";"Europe/Warsaw";"Ryanair";"Ireland"
"RYR";"STN";"2025-11-14";"17:55";"RYR1736";"LONDRES /STANSTED (STN)";"No informado";"Tarde";"1736";"548";"London Stansted Airport";"London";"United Kingdom";"EGSS";"51.8849983215";"0.234999999404";"348";"0";"Europe/London";"Ryanair";"Ireland"
"RYR";"TSF";"2025-11-15";"17:40";"RYR6248";"TREVISO/S.ANGELO (MIL) (TSF)";"No informado";"Tarde";"6248";"1539";"Treviso-Sant'Angelo Airport";"Treviso";"Italy";"LIPH";"45.648399";"12.1944";"59";"1";"Europe/Rome";"Ryanair";"Ireland"
"RYR";"TSF";"2025-11-12";"11:45";"RYR6248";"TREVISO/S.ANGELO (MIL) (TSF)";"No informado";"Mañana";"6248";"1539";"Treviso-Sant'Angelo Airport";"Treviso";"Italy";"LIPH";"45.648399";"12.1944";"59";"1";"Europe/Rome";"Ryanair";"Ireland"
"RYR";"KRK";"2025-11-09";"13:00";"RYR2229";"CRACOVIA (KRK)";"En vuelo";"Tarde";"2229";"669";"Kraków John Paul II International Airport";"Krakow";"Poland";"EPKK";"50.077702";"19.7848";"791";"1";"Europe/Warsaw";"Ryanair";"Ireland"
"RYR";"TRN";"2025-11-14";"18:20";"RYR2259";"TURIN (TRN)";"No informado";"Noche";"2259";"1526";"Turin Airport";"Torino";"Italy";"LIMF";"45.200802";"7.64963";"989";"1";"Europe/Rome";"Ryanair";"Ireland"
"RYR";"TRS";"2025-11-15";"19:00";"RYR618";"TRIESTE (TRS)";"No informado";"Noche";"618";"1545";"Trieste–Friuli Venezia Giulia Airport";"Ronchi De Legionari";"Italy";"LIPQ";"45.827499";"13.4722";"39";"1";"Europe/Rome";"Ryanair";"Ireland"
"RYR";"MAN";"2025-11-10";"18:40";"RYR641";"MANCHESTER (MAN)";"No informado";"Noche";"641";"478";"Manchester Airport";"Manchester";"United Kingdom";"EGCC";"53.35369873046875";"-2.2749500274658203";"257";"0";"Europe/London";"Ryanair";"Ireland"
"RYR";"MAN";"2025-11-09";"19:25";"RYR641";"MANCHESTER (MAN)";"No informado";"Noche";"641";"478";"Manchester Airport";"Manchester";"United Kingdom";"EGCC";"53.35369873046875";"-2.2749500274658203";"257";"0";"Europe/London";"Ryanair";"Ireland"
"RYR";"VIE";"2025-11-14";"17:30";"RYR7340";"VIENA (VIE)";"No informado";"Tarde";"7340";"1613";"Vienna International Airport";"Vienna";"Austria";"LOWW";"48.110298156738";"16.569700241089";"600";"1";"Europe/Vienna";"Ryanair";"Ireland"
"RYR";"SVQ";"2025-11-14";"22:00";"RYR2208";"SEVILLA (SVQ)";"No informado";"Noche";"2208";"1253";"Sevilla Airport";"Sevilla";"Spain";"LEZL";"37.417999267578125";"-5.8931097984313965";"112";"1";"Europe/Madrid";"Ryanair";"Ireland"
"RYR";"SVQ";"2025-11-09";"19:05";"RYR2208";"SEVILLA (SVQ)";"No informado";"Noche";"2208";"1253";"Sevilla Airport";"Sevilla";"Spain";"LEZL";"37.417999267578125";"-5.8931097984313965";"112";"1";"Europe/Madrid";"Ryanair";"Ireland"
"RYR";"TSF";"2025-11-09";"21:10";"RYR7267";"TREVISO/S.ANGELO (MIL) (TSF)";"No informado";"Noche";"7267";"1539";"Treviso-Sant'Angelo Airport";"Treviso";"Italy";"LIPH";"45.648399";"12.1944";"59";"1";"Europe/Rome";"Ryanair";"Ireland"
"RYR";"TSF";"2025-11-13";"10:55";"RYR6248";"TREVISO/S.ANGELO (MIL) (TSF)";"No informado";"Mañana";"6248";"1539";"Treviso-Sant'Angelo Airport";"Treviso";"Italy";"LIPH";"45.648399";"12.1944";"59";"1";"Europe/Rome";"Ryanair";"Ireland"
"RYR";"RAK";"2025-11-13";"22:15";"RYR2217";"MARRAKECH (RAK)";"No informado";"Noche";"2217";"1075";"Menara Airport";"Marrakech";"Morocco";"GMMX";"31.606899261499997";"-8.03629970551";"1545";"0";"Africa/Casablanca";"Ryanair";"Ireland"
"RYR";"FCO";"2025-11-12";"20:15";"RYR1003";"ROMA /FIUMICINO (FCO)";"No informado";"Noche";"1003";"1555";"Leonardo da Vinci–Fiumicino Airport";"Rome";"Italy";"LIRF";"41.8002778";"12.2388889";"13";"1";"Europe/Rome";"Ryanair";"Ireland"
"RYR";"STN";"2025-11-13";"21:20";"RYR6325";"LONDRES /STANSTED (STN)";"No informado";"Noche";"6325";"548";"London Stansted Airport";"London";"United Kingdom";"EGSS";"51.8849983215";"0.234999999404";"348";"0";"Europe/London";"Ryanair";"Ireland"
"RYR";"CGN";"2025-11-13";"08:25";"RYR2257";"KOELN/BONN (CGN)";"No informado";"Mañana";"2257";"344";"Cologne Bonn Airport";"Cologne";"Germany";"EDDK";"50.8658981323";"7.1427397728";"302";"1";"Europe/Berlin";"Ryanair";"Ireland"
"RYR";"PMI";"2025-11-15";"13:35";"RYR7215";"PALMA DE MALLORCA (PMI)";"No informado";"Tarde";"7215";"3998";"Palma De Mallorca Airport";"Palma de Mallorca";"Spain";"LEPA";"39.551700592";"2.73881006241";"27";"1";"Europe/Madrid";"Ryanair";"Ireland"
"RYR";"OPO";"2025-11-15";"15:00";"RYR1710";"OPORTO (OPO)";"No informado";"Tarde";"1710";"1636";"Francisco de Sá Carneiro Airport";"Porto";"Portugal";"LPPR";"41.2481002808";"-8.68138980865";"228";"0";"Europe/Lisbon";"Ryanair";"Ireland"
"RYR";"MXP";"2025-11-13";"10:25";"RYR1444";"MILAN /MALPENSA (MXP)";"No informado";"Mañana";"1444";"1524";"Malpensa International Airport";"Milano";"Italy";"LIMC";"45.6306";"8.72811";"768";"1";"Europe/Rome";"Ryanair";"Ireland"
"RYR";"FCO";"2025-11-10";"08:00";"RYR1003";"ROMA /FIUMICINO (FCO)";"No informado";"Mañana";"1003";"1555";"Leonardo da Vinci–Fiumicino Airport";"Rome";"Italy";"LIRF";"41.8002778";"12.2388889";"13";"1";"Europe/Rome";"Ryanair";"Ireland"
"RYR";"PMO";"2025-11-10";"17:25";"RYR4486";"PALERMO /PUNTA RAISI (PMO)";"No informado";"Tarde";"4486";"1512";"Falcone–Borsellino Airport";"Palermo";"Italy";"LICJ";"38.175999";"13.091";"65";"1";"Europe/Rome";"Ryanair";"Ireland"
"RYR";"VIE";"2025-11-15";"10:35";"RYR802";"VIENA (VIE)";"No informado";"Mañana";"802";"1613";"Vienna International Airport";"Vienna";"Austria";"LOWW";"48.110298156738";"16.569700241089";"600";"1";"Europe/Vienna";"Ryanair";"Ireland"
"RYR";"STN";"2025-11-09";"20:40";"RYR1736";"LONDRES /STANSTED (STN)";"No informado";"Noche";"1736";"548";"London Stansted Airport";"London";"United Kingdom";"EGSS";"51.8849983215";"0.234999999404";"348";"0";"Europe/London";"Ryanair";"Ireland"
"RYR";"TLS";"2025-11-16";"09:25";"RYR2080";"TOULOUSE (TLS)";"No informado";"Mañana";"2080";"1273";"Toulouse-Blagnac Airport";"Toulouse";"France";"LFBO";"43.629101";"1.36382";"499";"1";"Europe/Paris";"Ryanair";"Ireland"
"RYR";"TNG";"2025-11-16";"08:25";"RYR5540";"TANGER (TNG)";"No informado";"Mañana";"5540";"1080";"Ibn Batouta Airport";"Tanger";"Morocco";"GMTT";"35.726898193400004";"-5.91689014435";"62";"0";"Africa/Casablanca";"Ryanair";"Ireland"
"RYR";"STN";"2025-11-15";"13:50";"RYR643";"LONDRES /STANSTED (STN)";"No informado";"Tarde";"643";"548";"London Stansted Airport";"London";"United Kingdom";"EGSS";"51.8849983215";"0.234999999404";"348";"0";"Europe/London";"Ryanair";"Ireland"
"RYR";"TNG";"2025-11-11";"00:25";"RYR5540";"TANGER (TNG)";"No informado";"Madrugada";"5540";"1080";"Ibn Batouta Airport";"Tanger";"Morocco";"GMTT";"35.726898193400004";"-5.91689014435";"62";"0";"Africa/Casablanca";"Ryanair";"Ireland"
"RYR";"TRN";"2025-11-13";"21:20";"RYR2259";"TURIN (TRN)";"No informado";"Noche";"2259";"1526";"Turin Airport";"Torino";"Italy";"LIMF";"45.200802";"7.64963";"989";"1";"Europe/Rome";"Ryanair";"Ireland"
"RYR";"RAK";"2025-11-09";"10:43";"RYR5034";"MARRAKECH (RAK)";"Finalizado";"Mañana";"5034";"1075";"Menara Airport";"Marrakech";"Morocco";"GMMX";"31.606899261499997";"-8.03629970551";"1545";"0";"Africa/Casablanca";"Ryanair";"Ireland"
"RYR";"OPO";"2025-11-13";"15:50";"RYR1710";"OPORTO (OPO)";"No informado";"Tarde";"1710";"1636";"Francisco de Sá Carneiro Airport";"Porto";"Portugal";"LPPR";"41.2481002808";"-8.68138980865";"228";"0";"Europe/Lisbon";"Ryanair";"Ireland"
"RYR";"STN";"2025-11-14";"13:30";"RYR643";"LONDRES /STANSTED (STN)";"No informado";"Tarde";"643";"548";"London Stansted Airport";"London";"United Kingdom";"EGSS";"51.8849983215";"0.234999999404";"348";"0";"Europe/London";"Ryanair";"Ireland"
"RYR";"MRS";"2025-11-09";"17:05";"RYR1770";"MARSELLA (MRS)";"No informado";"Tarde";"1770";"1353";"Marseille Provence Airport";"Marseille";"France";"LFML";"43.439271922";"5.22142410278";"74";"1";"Europe/Paris";"Ryanair";"Ireland"
"RYR";"ORK";"2025-11-11";"19:25";"RYR8109";"CORK (ORK)";"No informado";"Noche";"8109";"596";"Cork Airport";"Cork";"Ireland";"EICK";"51.84130096435547";"-8.491109848022461";"502";"0";"Europe/Dublin";"Ryanair";"Ireland"
"RYR";"SVQ";"2025-11-15";"10:55";"RYR2206";"SEVILLA (SVQ)";"No informado";"Mañana";"2206";"1253";"Sevilla Airport";"Sevilla";"Spain";"LEZL";"37.417999267578125";"-5.8931097984313965";"112";"1";"Europe/Madrid";"Ryanair";"Ireland"
"RYR";"STN";"2025-11-09";"22:40";"RYR6325";"LONDRES /STANSTED (STN)";"No informado";"Noche";"6325";"548";"London Stansted Airport";"London";"United Kingdom";"EGSS";"51.8849983215";"0.234999999404";"348";"0";"Europe/London";"Ryanair";"Ireland"
"RYR";"OPO";"2025-11-10";"22:00";"RYR2646";"OPORTO (OPO)";"No informado";"Noche";"2646";"1636";"Francisco de Sá Carneiro Airport";"Porto";"Portugal";"LPPR";"41.2481002808";"-8.68138980865";"228";"0";"Europe/Lisbon";"Ryanair";"Ireland"
"RYR";"SCQ";"2025-11-11";"00:30";"RYR2271";"SANTIAGO-ROSALÍA DE CASTRO (SCQ)";"No informado";"Madrugada";"2271";"1243";"Santiago de Compostela Airport";"Santiago";"Spain";"LEST";"42.89630126953125";"-8.415140151977539";"1213";"1";"Europe/Madrid";"Ryanair";"Ireland"
"RYR";"SVQ";"2025-11-10";"09:15";"RYR2206";"SEVILLA (SVQ)";"No informado";"Mañana";"2206";"1253";"Sevilla Airport";"Sevilla";"Spain";"LEZL";"37.417999267578125";"-5.8931097984313965";"112";"1";"Europe/Madrid";"Ryanair";"Ireland"
"RYR";"TFS";"2025-11-10";"20:35";"RYR1971";"TENERIFE SUR (TFS)";"No informado";"Noche";"1971";"1056";"Tenerife South Airport";"Tenerife";"Spain";"GCTS";"28.044500351";"-16.5725002289";"209";"0";"Atlantic/Canary";"Ryanair";"Ireland"
"RYR";"PMI";"2025-11-09";"13:15";"RYR7215";"PALMA DE MALLORCA (PMI)";"No informado";"Tarde";"7215";"3998";"Palma De Mallorca Airport";"Palma de Mallorca";"Spain";"LEPA";"39.551700592";"2.73881006241";"27";"1";"Europe/Madrid";"Ryanair";"Ireland"
"RYR";"SCQ";"2025-11-14";"09:45";"RYR2271";"SANTIAGO-ROSALÍA DE CASTRO (SCQ)";"No informado";"Mañana";"2271";"1243";"Santiago de Compostela Airport";"Santiago";"Spain";"LEST";"42.89630126953125";"-8.415140151977539";"1213";"1";"Europe/Madrid";"Ryanair";"Ireland"
"RYR";"STN";"2025-11-10";"14:20";"RYR643";"LONDRES /STANSTED (STN)";"No informado";"Tarde";"643";"548";"London Stansted Airport";"London";"United Kingdom";"EGSS";"51.8849983215";"0.234999999404";"348";"0";"Europe/London";"Ryanair";"Ireland"
"RYR";"STN";"2025-11-16";"10:25";"RYR643";"LONDRES /STANSTED (STN)";"No informado";"Mañana";"643";"548";"London Stansted Airport";"London";"United Kingdom";"EGSS";"51.8849983215";"0.234999999404";"348";"0";"Europe/London";"Ryanair";"Ireland"
"RYR";"MAN";"2025-11-14";"09:20";"RYR641";"MANCHESTER (MAN)";"No informado";"Mañana";"641";"478";"Manchester Airport";"Manchester";"United Kingdom";"EGCC";"53.35369873046875";"-2.2749500274658203";"257";"0";"Europe/London";"Ryanair";"Ireland"
"RYR";"STN";"2025-11-12";"11:15";"RYR643";"LONDRES /STANSTED (STN)";"No informado";"Mañana";"643";"548";"London Stansted Airport";"London";"United Kingdom";"EGSS";"51.8849983215";"0.234999999404";"348";"0";"Europe/London";"Ryanair";"Ireland"
"RYR";"STN";"2025-11-13";"10:55";"RYR643";"LONDRES /STANSTED (STN)";"No informado";"Mañana";"643";"548";"London Stansted Airport";"London";"United Kingdom";"EGSS";"51.8849983215";"0.234999999404";"348";"0";"Europe/London";"Ryanair";"Ireland"
"RYR";"SCQ";"2025-11-11";"16:35";"RYR705";"SANTIAGO-ROSALÍA DE CASTRO (SCQ)";"No informado";"Tarde";"705";"1243";"Santiago de Compostela Airport";"Santiago";"Spain";"LEST";"42.89630126953125";"-8.415140151977539";"1213";"1";"Europe/Madrid";"Ryanair";"Ireland"
"RZO";"LIS";"2025-11-15";"17:40";"RZO8732";"LISBOA (LIS)";"No informado";"Tarde";"8732";"1638";"Humberto Delgado Airport (Lisbon Portela Airport)";"Lisbon";"Portugal";"LPPT";"38.7813";"-9.13592";"374";"0";"Europe/Lisbon";"SATA International";"Portugal"
"SWR";"GVA";"2025-11-13";"07:55";"SWR2130";"GINEBRA (GVA)";"No informado";"Mañana";"2130";"1665";"Geneva Cointrin International Airport";"Geneva";"Switzerland";"LSGG";"46.23809814453125";"6.108950138092041";"1411";"1";"Europe/Paris";"Swiss International Air Lines";"Switzerland"
"SWR";"ZRH";"2025-11-09";"11:30";"SWR2140";"ZURICH (ZRH)";"Aproximándose";"Mañana";"2140";"1678";"Zürich Airport";"Zurich";"Switzerland";"LSZH";"47.464699";"8.54917";"1416";"1";"Europe/Zurich";"Swiss International Air Lines";"Switzerland"
"SWR";"GVA";"2025-11-10";"07:45";"SWR2130";"GINEBRA (GVA)";"No informado";"Mañana";"2130";"1665";"Geneva Cointrin International Airport";"Geneva";"Switzerland";"LSGG";"46.23809814453125";"6.108950138092041";"1411";"1";"Europe/Paris";"Swiss International Air Lines";"Switzerland"
"SWR";"ZRH";"2025-11-16";"11:50";"SWR2140";"ZURICH (ZRH)";"No informado";"Mañana";"2140";"1678";"Zürich Airport";"Zurich";"Switzerland";"LSZH";"47.464699";"8.54917";"1416";"1";"Europe/Zurich";"Swiss International Air Lines";"Switzerland"
"SWR";"ZRH";"2025-11-09";"19:00";"SWR2146";"ZURICH (ZRH)";"No informado";"Noche";"2146";"1678";"Zürich Airport";"Zurich";"Switzerland";"LSZH";"47.464699";"8.54917";"1416";"1";"Europe/Zurich";"Swiss International Air Lines";"Switzerland"
"SWR";"ZRH";"2025-11-13";"09:10";"SWR2140";"ZURICH (ZRH)";"No informado";"Mañana";"2140";"1678";"Zürich Airport";"Zurich";"Switzerland";"LSZH";"47.464699";"8.54917";"1416";"1";"Europe/Zurich";"Swiss International Air Lines";"Switzerland"
"SWR";"GVA";"2025-11-14";"09:10";"SWR2130";"GINEBRA (GVA)";"No informado";"Mañana";"2130";"1665";"Geneva Cointrin International Airport";"Geneva";"Switzerland";"LSGG";"46.23809814453125";"6.108950138092041";"1411";"1";"Europe/Paris";"Swiss International Air Lines";"Switzerland"
"SWR";"ZRH";"2025-11-13";"14:10";"SWR2142";"ZURICH (ZRH)";"No informado";"Tarde";"2142";"1678";"Zürich Airport";"Zurich";"Switzerland";"LSZH";"47.464699";"8.54917";"1416";"1";"Europe/Zurich";"Swiss International Air Lines";"Switzerland"
"SWR";"ZRH";"2025-11-10";"12:05";"SWR2140";"ZURICH (ZRH)";"No informado";"Tarde";"2140";"1678";"Zürich Airport";"Zurich";"Switzerland";"LSZH";"47.464699";"8.54917";"1416";"1";"Europe/Zurich";"Swiss International Air Lines";"Switzerland"
"SWR";"ZRH";"2025-11-10";"18:55";"SWR2146";"ZURICH (ZRH)";"No informado";"Noche";"2146";"1678";"Zürich Airport";"Zurich";"Switzerland";"LSZH";"47.464699";"8.54917";"1416";"1";"Europe/Zurich";"Swiss International Air Lines";"Switzerland"
"SWR";"ZRH";"2025-11-12";"12:10";"SWR2140";"ZURICH (ZRH)";"No informado";"Tarde";"2140";"1678";"Zürich Airport";"Zurich";"Switzerland";"LSZH";"47.464699";"8.54917";"1416";"1";"Europe/Zurich";"Swiss International Air Lines";"Switzerland"
"SWR";"ZRH";"2025-11-14";"11:55";"SWR2140";"ZURICH (ZRH)";"No informado";"Mañana";"2140";"1678";"Zürich Airport";"Zurich";"Switzerland";"LSZH";"47.464699";"8.54917";"1416";"1";"Europe/Zurich";"Swiss International Air Lines";"Switzerland"
"TAP";"LIS";"2025-11-10";"17:30";"TAP1094";"LISBOA (LIS)";"No informado";"Tarde";"1094";"1638";"Humberto Delgado Airport (Lisbon Portela Airport)";"Lisbon";"Portugal";"LPPT";"38.7813";"-9.13592";"374";"0";"Europe/Lisbon";"TAP Portugal";"Portugal"
"TAP";"LIS";"2025-11-09";"23:30";"TAP1096";"LISBOA (LIS)";"No informado";"Noche";"1096";"1638";"Humberto Delgado Airport (Lisbon Portela Airport)";"Lisbon";"Portugal";"LPPT";"38.7813";"-9.13592";"374";"0";"Europe/Lisbon";"TAP Portugal";"Portugal"
"TAP";"LIS";"2025-11-09";"11:40";"TAP1092";"LISBOA (LIS)";"Aproximándose";"Mañana";"1092";"1638";"Humberto Delgado Airport (Lisbon Portela Airport)";"Lisbon";"Portugal";"LPPT";"38.7813";"-9.13592";"374";"0";"Europe/Lisbon";"TAP Portugal";"Portugal"
"TAP";"LIS";"2025-11-10";"11:10";"TAP1092";"LISBOA (LIS)";"No informado";"Mañana";"1092";"1638";"Humberto Delgado Airport (Lisbon Portela Airport)";"Lisbon";"Portugal";"LPPT";"38.7813";"-9.13592";"374";"0";"Europe/Lisbon";"TAP Portugal";"Portugal"
"THY";"IST";"2025-11-09";"17:10";"THY1313";"ESTAMBUL (IST)";"No informado";"Tarde";"1313";"13696";"Istanbul Airport";"Istanbul";"Turkey";"LTFM";"41.275278";"28.751944";"325";"3";"\N";"Turkish Airlines";"Turkey"
"THY";"IST";"2025-11-09";"10:39";"THY1301";"ESTAMBUL (IST)";"Finalizado";"Mañana";"1301";"13696";"Istanbul Airport";"Istanbul";"Turkey";"LTFM";"41.275278";"28.751944";"325";"3";"\N";"Turkish Airlines";"Turkey"
"THY";"IST";"2025-11-10";"10:55";"THY1301";"ESTAMBUL (IST)";"No informado";"Mañana";"1301";"13696";"Istanbul Airport";"Istanbul";"Turkey";"LTFM";"41.275278";"28.751944";"325";"3";"\N";"Turkish Airlines";"Turkey"
"TRA";"AMS";"2025-11-10";"19:30";"TRA6331";"AMSTERDAM /SCHIPHOL (AMS)";"No informado";"Noche";"6331";"580";"Amsterdam Airport Schiphol";"Amsterdam";"Netherlands";"EHAM";"52.308601";"4.76389";"-11";"1";"Europe/Amsterdam";"Transavia Holland";"Netherlands"
"TRA";"EIN";"2025-11-16";"09:30";"TRA5105";"EINDHOVEN (EIN)";"No informado";"Mañana";"5105";"585";"Eindhoven Airport";"Eindhoven";"Netherlands";"EHEH";"51.4500999451";"5.37452983856";"74";"1";"Europe/Amsterdam";"Transavia Holland";"Netherlands"
"TRA";"RTM";"2025-11-11";"17:45";"TRA6443";"ROTTERDAM (RTM)";"No informado";"Tarde";"6443";"591";"Rotterdam The Hague Airport";"Rotterdam";"Netherlands";"EHRD";"51.956902";"4.43722";"-15";"1";"Europe/Amsterdam";"Transavia Holland";"Netherlands"
"TRA";"EIN";"2025-11-10";"09:35";"TRA5105";"EINDHOVEN (EIN)";"No informado";"Mañana";"5105";"585";"Eindhoven Airport";"Eindhoven";"Netherlands";"EHEH";"51.4500999451";"5.37452983856";"74";"1";"Europe/Amsterdam";"Transavia Holland";"Netherlands"
"TRA";"AMS";"2025-11-10";"09:55";"TRA6337";"AMSTERDAM /SCHIPHOL (AMS)";"No informado";"Mañana";"6337";"580";"Amsterdam Airport Schiphol";"Amsterdam";"Netherlands";"EHAM";"52.308601";"4.76389";"-11";"1";"Europe/Amsterdam";"Transavia Holland";"Netherlands"
"TRA";"EIN";"2025-11-14";"19:10";"TRA5107";"EINDHOVEN (EIN)";"No informado";"Noche";"5107";"585";"Eindhoven Airport";"Eindhoven";"Netherlands";"EHEH";"51.4500999451";"5.37452983856";"74";"1";"Europe/Amsterdam";"Transavia Holland";"Netherlands"
"TRA";"EIN";"2025-11-11";"09:20";"TRA5105";"EINDHOVEN (EIN)";"No informado";"Mañana";"5105";"585";"Eindhoven Airport";"Eindhoven";"Netherlands";"EHEH";"51.4500999451";"5.37452983856";"74";"1";"Europe/Amsterdam";"Transavia Holland";"Netherlands"
"TRA";"AMS";"2025-11-14";"09:35";"TRA6335";"AMSTERDAM /SCHIPHOL (AMS)";"No informado";"Mañana";"6335";"580";"Amsterdam Airport Schiphol";"Amsterdam";"Netherlands";"EHAM";"52.308601";"4.76389";"-11";"1";"Europe/Amsterdam";"Transavia Holland";"Netherlands"
"TRA";"EIN";"2025-11-15";"09:55";"TRA5105";"EINDHOVEN (EIN)";"No informado";"Mañana";"5105";"585";"Eindhoven Airport";"Eindhoven";"Netherlands";"EHEH";"51.4500999451";"5.37452983856";"74";"1";"Europe/Amsterdam";"Transavia Holland";"Netherlands"
"TRA";"RTM";"2025-11-13";"18:50";"TRA6441";"ROTTERDAM (RTM)";"No informado";"Noche";"6441";"591";"Rotterdam The Hague Airport";"Rotterdam";"Netherlands";"EHRD";"51.956902";"4.43722";"-15";"1";"Europe/Amsterdam";"Transavia Holland";"Netherlands"
"TRA";"AMS";"2025-11-11";"09:15";"TRA6331";"AMSTERDAM /SCHIPHOL (AMS)";"No informado";"Mañana";"6331";"580";"Amsterdam Airport Schiphol";"Amsterdam";"Netherlands";"EHAM";"52.308601";"4.76389";"-11";"1";"Europe/Amsterdam";"Transavia Holland";"Netherlands"
"TRA";"AMS";"2025-11-16";"09:45";"TRA6335";"AMSTERDAM /SCHIPHOL (AMS)";"No informado";"Mañana";"6335";"580";"Amsterdam Airport Schiphol";"Amsterdam";"Netherlands";"EHAM";"52.308601";"4.76389";"-11";"1";"Europe/Amsterdam";"Transavia Holland";"Netherlands"
"TRA";"EIN";"2025-11-12";"18:45";"TRA5105";"EINDHOVEN (EIN)";"No informado";"Noche";"5105";"585";"Eindhoven Airport";"Eindhoven";"Netherlands";"EHEH";"51.4500999451";"5.37452983856";"74";"1";"Europe/Amsterdam";"Transavia Holland";"Netherlands"
"TRA";"AMS";"2025-11-09";"20:00";"TRA6331";"AMSTERDAM /SCHIPHOL (AMS)";"No informado";"Noche";"6331";"580";"Amsterdam Airport Schiphol";"Amsterdam";"Netherlands";"EHAM";"52.308601";"4.76389";"-11";"1";"Europe/Amsterdam";"Transavia Holland";"Netherlands"
"TRA";"EIN";"2025-11-14";"09:50";"TRA5105";"EINDHOVEN (EIN)";"No informado";"Mañana";"5105";"585";"Eindhoven Airport";"Eindhoven";"Netherlands";"EHEH";"51.4500999451";"5.37452983856";"74";"1";"Europe/Amsterdam";"Transavia Holland";"Netherlands"
"TRA";"AMS";"2025-11-15";"08:25";"TRA6333";"AMSTERDAM /SCHIPHOL (AMS)";"No informado";"Mañana";"6333";"580";"Amsterdam Airport Schiphol";"Amsterdam";"Netherlands";"EHAM";"52.308601";"4.76389";"-11";"1";"Europe/Amsterdam";"Transavia Holland";"Netherlands"
"TVF";"ORY";"2025-11-13";"09:20";"TVF4620";"PARIS /ORLY (ORY)";"No informado";"Mañana";"4620";"1386";"Paris-Orly Airport";"Paris";"France";"LFPO";"48.7233333";"2.3794444";"291";"1";"Europe/Paris";"Transavia France";"France"
"TVF";"ORY";"2025-11-09";"19:55";"TVF4628";"PARIS /ORLY (ORY)";"No informado";"Noche";"4628";"1386";"Paris-Orly Airport";"Paris";"France";"LFPO";"48.7233333";"2.3794444";"291";"1";"Europe/Paris";"Transavia France";"France"
"TVF";"ORY";"2025-11-10";"14:30";"TVF4624";"PARIS /ORLY (ORY)";"No informado";"Tarde";"4624";"1386";"Paris-Orly Airport";"Paris";"France";"LFPO";"48.7233333";"2.3794444";"291";"1";"Europe/Paris";"Transavia France";"France"
"TVF";"ORY";"2025-11-14";"11:05";"TVF4620";"PARIS /ORLY (ORY)";"No informado";"Mañana";"4620";"1386";"Paris-Orly Airport";"Paris";"France";"LFPO";"48.7233333";"2.3794444";"291";"1";"Europe/Paris";"Transavia France";"France"
"TVF";"ORY";"2025-11-10";"11:20";"TVF4620";"PARIS /ORLY (ORY)";"No informado";"Mañana";"4620";"1386";"Paris-Orly Airport";"Paris";"France";"LFPO";"48.7233333";"2.3794444";"291";"1";"Europe/Paris";"Transavia France";"France"
"TVF";"ORY";"2025-11-15";"08:30";"TVF4620";"PARIS /ORLY (ORY)";"No informado";"Mañana";"4620";"1386";"Paris-Orly Airport";"Paris";"France";"LFPO";"48.7233333";"2.3794444";"291";"1";"Europe/Paris";"Transavia France";"France"
"TVS";"PRG";"2025-11-09";"21:20";"TVS1054";"PRAGA (PRG)";"No informado";"Noche";"1054";"1587";"Václav Havel Airport Prague";"Prague";"Czech Republic";"LKPR";"50.1008";"14.26";"1247";"1";"Europe/Prague";"Travel Service";"Czech Republic"
"VLG";"ORY";"2025-11-10";"19:30";"VLG8155";"PARIS /ORLY (ORY)";"No informado";"Noche";"8155";"1386";"Paris-Orly Airport";"Paris";"France";"LFPO";"48.7233333";"2.3794444";"291";"1";"Europe/Paris";"Vueling Airlines";"Spain"
"VLG";"PMI";"2025-11-10";"08:45";"VLG3950";"PALMA DE MALLORCA (PMI)";"No informado";"Mañana";"3950";"3998";"Palma De Mallorca Airport";"Palma de Mallorca";"Spain";"LEPA";"39.551700592";"2.73881006241";"27";"1";"Europe/Madrid";"Vueling Airlines";"Spain"
"VLG";"SVQ";"2025-11-10";"20:45";"VLG3964";"SEVILLA (SVQ)";"No informado";"Noche";"3964";"1253";"Sevilla Airport";"Sevilla";"Spain";"LEZL";"37.417999267578125";"-5.8931097984313965";"112";"1";"Europe/Madrid";"Vueling Airlines";"Spain"
"VLG";"LPA";"2025-11-10";"17:30";"VLG1175";"GRAN CANARIA (LPA)";"No informado";"Tarde";"1175";"1054";"Gran Canaria Airport";"Gran Canaria";"Spain";"GCLP";"27.931900024414062";"-15.38659954071045";"78";"0";"Atlantic/Canary";"Vueling Airlines";"Spain"
"VLG";"SVQ";"2025-11-19";"15:00";"VLG5793";"SEVILLA (SVQ)";"No informado";"Tarde";"5793";"1253";"Sevilla Airport";"Sevilla";"Spain";"LEZL";"37.417999267578125";"-5.8931097984313965";"112";"1";"Europe/Madrid";"Vueling Airlines";"Spain"
"VLG";"BIO";"2025-11-10";"16:05";"VLG3966";"BILBAO (BIO)";"No informado";"Tarde";"3966";"1216";"Bilbao Airport";"Bilbao";"Spain";"LEBB";"43.30110168457031";"-2.9106099605560303";"138";"1";"Europe/Madrid";"Vueling Airlines";"Spain"
"VLG";"LGW";"2025-11-22";"12:25";"VLG8473";"LONDRES /GATWICK (LGW)";"No informado";"Tarde";"8473";"502";"London Gatwick Airport";"London";"United Kingdom";"EGKK";"51.148102";"-0.190278";"202";"0";"Europe/London";"Vueling Airlines";"Spain"
"VLG";"BIO";"2025-11-13";"20:45";"VLG3968";"BILBAO (BIO)";"No informado";"Noche";"3968";"1216";"Bilbao Airport";"Bilbao";"Spain";"LEBB";"43.30110168457031";"-2.9106099605560303";"138";"1";"Europe/Madrid";"Vueling Airlines";"Spain"
"VLG";"SVQ";"2025-11-09";"17:05";"VLG3964";"SEVILLA (SVQ)";"No informado";"Tarde";"3964";"1253";"Sevilla Airport";"Sevilla";"Spain";"LEZL";"37.417999267578125";"-5.8931097984313965";"112";"1";"Europe/Madrid";"Vueling Airlines";"Spain"
"VLG";"LGW";"2025-11-14";"22:55";"VLG8473";"LONDRES /GATWICK (LGW)";"No informado";"Noche";"8473";"502";"London Gatwick Airport";"London";"United Kingdom";"EGKK";"51.148102";"-0.190278";"202";"0";"Europe/London";"Vueling Airlines";"Spain"
"VLG";"BIO";"2025-11-14";"13:20";"VLG3968";"BILBAO (BIO)";"No informado";"Tarde";"3968";"1216";"Bilbao Airport";"Bilbao";"Spain";"LEBB";"43.30110168457031";"-2.9106099605560303";"138";"1";"Europe/Madrid";"Vueling Airlines";"Spain"
"VLG";"PMI";"2025-11-11";"14:35";"VLG5980";"PALMA DE MALLORCA (PMI)";"No informado";"Tarde";"5980";"3998";"Palma De Mallorca Airport";"Palma de Mallorca";"Spain";"LEPA";"39.551700592";"2.73881006241";"27";"1";"Europe/Madrid";"Vueling Airlines";"Spain"
"VLG";"AMS";"2025-11-10";"00:20";"VLG8350";"AMSTERDAM /SCHIPHOL (AMS)";"No informado";"Madrugada";"8350";"580";"Amsterdam Airport Schiphol";"Amsterdam";"Netherlands";"EHAM";"52.308601";"4.76389";"-11";"1";"Europe/Amsterdam";"Vueling Airlines";"Spain"
"VLG";"ORY";"2025-11-11";"08:55";"VLG8151";"PARIS /ORLY (ORY)";"No informado";"Mañana";"8151";"1386";"Paris-Orly Airport";"Paris";"France";"LFPO";"48.7233333";"2.3794444";"291";"1";"Europe/Paris";"Vueling Airlines";"Spain"
"VLG";"PMI";"2025-11-11";"20:55";"VLG5800";"PALMA DE MALLORCA (PMI)";"No informado";"Noche";"5800";"3998";"Palma De Mallorca Airport";"Palma de Mallorca";"Spain";"LEPA";"39.551700592";"2.73881006241";"27";"1";"Europe/Madrid";"Vueling Airlines";"Spain"
"VLG";"PMI";"2025-11-11";"10:25";"VLG3950";"PALMA DE MALLORCA (PMI)";"No informado";"Mañana";"3950";"3998";"Palma De Mallorca Airport";"Palma de Mallorca";"Spain";"LEPA";"39.551700592";"2.73881006241";"27";"1";"Europe/Madrid";"Vueling Airlines";"Spain"
"VLG";"SVQ";"2025-11-14";"16:55";"VLG3964";"SEVILLA (SVQ)";"No informado";"Tarde";"3964";"1253";"Sevilla Airport";"Sevilla";"Spain";"LEZL";"37.417999267578125";"-5.8931097984313965";"112";"1";"Europe/Madrid";"Vueling Airlines";"Spain"
"VLG";"PMI";"2025-11-09";"15:25";"VLG3952";"PALMA DE MALLORCA (PMI)";"No informado";"Tarde";"3952";"3998";"Palma De Mallorca Airport";"Palma de Mallorca";"Spain";"LEPA";"39.551700592";"2.73881006241";"27";"1";"Europe/Madrid";"Vueling Airlines";"Spain"
"VLG";"PMI";"2025-11-15";"17:40";"VLG3952";"PALMA DE MALLORCA (PMI)";"No informado";"Tarde";"3952";"3998";"Palma De Mallorca Airport";"Palma de Mallorca";"Spain";"LEPA";"39.551700592";"2.73881006241";"27";"1";"Europe/Madrid";"Vueling Airlines";"Spain"
"VLG";"LGW";"2025-11-13";"22:20";"VLG8473";"LONDRES /GATWICK (LGW)";"No informado";"Noche";"8473";"502";"London Gatwick Airport";"London";"United Kingdom";"EGKK";"51.148102";"-0.190278";"202";"0";"Europe/London";"Vueling Airlines";"Spain"
"VLG";"BRU";"2025-11-10";"17:20";"VLG8921";"BRUSELAS (BRU)";"No informado";"Tarde";"8921";"302";"Brussels Airport";"Brussels";"Belgium";"EBBR";"50.901401519800004";"4.48443984985";"184";"1";"Europe/Brussels";"Vueling Airlines";"Spain"
"VLG";"ORY";"2025-11-12";"19:45";"VLG8155";"PARIS /ORLY (ORY)";"No informado";"Noche";"8155";"1386";"Paris-Orly Airport";"Paris";"France";"LFPO";"48.7233333";"2.3794444";"291";"1";"Europe/Paris";"Vueling Airlines";"Spain"
"VLG";"LGW";"2025-11-10";"22:40";"VLG8473";"LONDRES /GATWICK (LGW)";"No informado";"Noche";"8473";"502";"London Gatwick Airport";"London";"United Kingdom";"EGKK";"51.148102";"-0.190278";"202";"0";"Europe/London";"Vueling Airlines";"Spain"
"VLG";"ORY";"2025-11-09";"14:10";"VLG8153";"PARIS /ORLY (ORY)";"No informado";"Tarde";"8153";"1386";"Paris-Orly Airport";"Paris";"France";"LFPO";"48.7233333";"2.3794444";"291";"1";"Europe/Paris";"Vueling Airlines";"Spain"
"VLG";"TFN";"2025-11-09";"13:10";"VLG3103";"TENERIFE NORTE-C. LA LAGUNA (TFN)";"En vuelo";"Tarde";"3103";"1057";"Tenerife Norte Airport";"Tenerife";"Spain";"GCXO";"28.4827003479";"-16.3414993286";"2076";"0";"Atlantic/Canary";"Vueling Airlines";"Spain"
"VLG";"AMS";"2025-11-09";"12:25";"VLG8352";"AMSTERDAM /SCHIPHOL (AMS)";"En vuelo";"Tarde";"8352";"580";"Amsterdam Airport Schiphol";"Amsterdam";"Netherlands";"EHAM";"52.308601";"4.76389";"-11";"1";"Europe/Amsterdam";"Vueling Airlines";"Spain"
"VLG";"SVQ";"2025-11-12";"14:20";"VLG3964";"SEVILLA (SVQ)";"No informado";"Tarde";"3964";"1253";"Sevilla Airport";"Sevilla";"Spain";"LEZL";"37.417999267578125";"-5.8931097984313965";"112";"1";"Europe/Madrid";"Vueling Airlines";"Spain"
"VLG";"SVQ";"2025-11-11";"10:05";"VLG5791";"SEVILLA (SVQ)";"No informado";"Mañana";"5791";"1253";"Sevilla Airport";"Sevilla";"Spain";"LEZL";"37.417999267578125";"-5.8931097984313965";"112";"1";"Europe/Madrid";"Vueling Airlines";"Spain"
"VLG";"PMI";"2025-11-09";"21:50";"VLG3954";"PALMA DE MALLORCA (PMI)";"No informado";"Noche";"3954";"3998";"Palma De Mallorca Airport";"Palma de Mallorca";"Spain";"LEPA";"39.551700592";"2.73881006241";"27";"1";"Europe/Madrid";"Vueling Airlines";"Spain"
"VLG";"AMS";"2025-11-11";"12:45";"VLG8352";"AMSTERDAM /SCHIPHOL (AMS)";"No informado";"Tarde";"8352";"580";"Amsterdam Airport Schiphol";"Amsterdam";"Netherlands";"EHAM";"52.308601";"4.76389";"-11";"1";"Europe/Amsterdam";"Vueling Airlines";"Spain"
"VLG";"BIO";"2025-11-09";"16:15";"VLG3966";"BILBAO (BIO)";"No informado";"Tarde";"3966";"1216";"Bilbao Airport";"Bilbao";"Spain";"LEBB";"43.30110168457031";"-2.9106099605560303";"138";"1";"Europe/Madrid";"Vueling Airlines";"Spain"
"VLG";"ORY";"2025-11-10";"11:30";"VLG8153";"PARIS /ORLY (ORY)";"No informado";"Mañana";"8153";"1386";"Paris-Orly Airport";"Paris";"France";"LFPO";"48.7233333";"2.3794444";"291";"1";"Europe/Paris";"Vueling Airlines";"Spain"
"VLG";"LPA";"2025-11-16";"10:30";"VLG1175";"GRAN CANARIA (LPA)";"No informado";"Mañana";"1175";"1054";"Gran Canaria Airport";"Gran Canaria";"Spain";"GCLP";"27.931900024414062";"-15.38659954071045";"78";"0";"Atlantic/Canary";"Vueling Airlines";"Spain"
"VLG";"BRU";"2025-11-12";"12:20";"VLG8921";"BRUSELAS (BRU)";"No informado";"Tarde";"8921";"302";"Brussels Airport";"Brussels";"Belgium";"EBBR";"50.901401519800004";"4.48443984985";"184";"1";"Europe/Brussels";"Vueling Airlines";"Spain"
"VLG";"FCO";"2025-11-09";"20:25";"VLG6243";"ROMA /FIUMICINO (FCO)";"No informado";"Noche";"6243";"1555";"Leonardo da Vinci–Fiumicino Airport";"Rome";"Italy";"LIRF";"41.8002778";"12.2388889";"13";"1";"Europe/Rome";"Vueling Airlines";"Spain"
"VLG";"IBZ";"2025-11-12";"14:20";"VLG5819";"IBIZA (IBZ)";"No informado";"Tarde";"5819";"1225";"Ibiza Airport";"Ibiza";"Spain";"LEIB";"38.872898101800004";"1.3731199502899998";"24";"1";"Europe/Madrid";"Vueling Airlines";"Spain"
"VLG";"ORY";"2025-11-12";"08:45";"VLG8151";"PARIS /ORLY (ORY)";"No informado";"Mañana";"8151";"1386";"Paris-Orly Airport";"Paris";"France";"LFPO";"48.7233333";"2.3794444";"291";"1";"Europe/Paris";"Vueling Airlines";"Spain"
"VLG";"FAO";"2025-11-10";"15:00";"VLG4143";"(FAO)";"No informado";"Tarde";"4143";"1626";"Faro Airport";"Faro";"Portugal";"LPFR";"37.0144004822";"-7.96590995789";"24";"0";"Europe/Lisbon";"Vueling Airlines";"Spain"
"VLG";"PMI";"2025-11-14";"18:00";"VLG3952";"PALMA DE MALLORCA (PMI)";"No informado";"Noche";"3952";"3998";"Palma De Mallorca Airport";"Palma de Mallorca";"Spain";"LEPA";"39.551700592";"2.73881006241";"27";"1";"Europe/Madrid";"Vueling Airlines";"Spain"
"VLG";"BIO";"2025-11-11";"11:45";"VLG5713";"BILBAO (BIO)";"No informado";"Mañana";"5713";"1216";"Bilbao Airport";"Bilbao";"Spain";"LEBB";"43.30110168457031";"-2.9106099605560303";"138";"1";"Europe/Madrid";"Vueling Airlines";"Spain"
"VLG";"TFN";"2025-11-10";"19:45";"VLG3103";"TENERIFE NORTE-C. LA LAGUNA (TFN)";"No informado";"Noche";"3103";"1057";"Tenerife Norte Airport";"Tenerife";"Spain";"GCXO";"28.4827003479";"-16.3414993286";"2076";"0";"Atlantic/Canary";"Vueling Airlines";"Spain"
"VLG";"AMS";"2025-11-14";"00:05";"VLG8350";"AMSTERDAM /SCHIPHOL (AMS)";"No informado";"Madrugada";"8350";"580";"Amsterdam Airport Schiphol";"Amsterdam";"Netherlands";"EHAM";"52.308601";"4.76389";"-11";"1";"Europe/Amsterdam";"Vueling Airlines";"Spain"
"VLG";"LPA";"2025-11-11";"14:00";"VLG1175";"GRAN CANARIA (LPA)";"No informado";"Tarde";"1175";"1054";"Gran Canaria Airport";"Gran Canaria";"Spain";"GCLP";"27.931900024414062";"-15.38659954071045";"78";"0";"Atlantic/Canary";"Vueling Airlines";"Spain"
"VLG";"LGW";"2025-11-09";"18:40";"VLG8473";"LONDRES /GATWICK (LGW)";"No informado";"Noche";"8473";"502";"London Gatwick Airport";"London";"United Kingdom";"EGKK";"51.148102";"-0.190278";"202";"0";"Europe/London";"Vueling Airlines";"Spain"
"VLG";"SVQ";"2025-11-13";"14:35";"VLG5791";"SEVILLA (SVQ)";"No informado";"Tarde";"5791";"1253";"Sevilla Airport";"Sevilla";"Spain";"LEZL";"37.417999267578125";"-5.8931097984313965";"112";"1";"Europe/Madrid";"Vueling Airlines";"Spain"
"VLG";"IBZ";"2025-11-15";"12:05";"VLG5831";"IBIZA (IBZ)";"No informado";"Tarde";"5831";"1225";"Ibiza Airport";"Ibiza";"Spain";"LEIB";"38.872898101800004";"1.3731199502899998";"24";"1";"Europe/Madrid";"Vueling Airlines";"Spain"
"VLG";"LPA";"2025-11-13";"21:50";"VLG1177";"GRAN CANARIA (LPA)";"No informado";"Noche";"1177";"1054";"Gran Canaria Airport";"Gran Canaria";"Spain";"GCLP";"27.931900024414062";"-15.38659954071045";"78";"0";"Atlantic/Canary";"Vueling Airlines";"Spain"
"VLG";"ORY";"2025-11-09";"19:15";"VLG8155";"PARIS /ORLY (ORY)";"No informado";"Noche";"8155";"1386";"Paris-Orly Airport";"Paris";"France";"LFPO";"48.7233333";"2.3794444";"291";"1";"Europe/Paris";"Vueling Airlines";"Spain"
"VLG";"MAH";"2025-11-14";"14:30";"VLG5841";"MENORCA (MAH)";"No informado";"Tarde";"5841";"1231";"Menorca Airport";"Menorca";"Spain";"LEMH";"39.86259841918945";"4.218649864196777";"302";"1";"Europe/Madrid";"Vueling Airlines";"Spain"
"VLG";"BRU";"2025-11-10";"00:35";"VLG8921";"BRUSELAS (BRU)";"No informado";"Madrugada";"8921";"302";"Brussels Airport";"Brussels";"Belgium";"EBBR";"50.901401519800004";"4.48443984985";"184";"1";"Europe/Brussels";"Vueling Airlines";"Spain"
"VOE";"OVD";"2025-11-15";"13:45";"VOE3582";"ASTURIAS (OVD)";"No informado";"Tarde";"3582";"1214";"Asturias Airport";"Aviles";"Spain";"LEAS";"43.5635986328125";"-6.0346198081970215";"416";"1";"Europe/Madrid";"VOLOTEA Airways";"Spain"
"VOE";"OVD";"2025-11-13";"12:20";"VOE3582";"ASTURIAS (OVD)";"No informado";"Tarde";"3582";"1214";"Asturias Airport";"Aviles";"Spain";"LEAS";"43.5635986328125";"-6.0346198081970215";"416";"1";"Europe/Madrid";"VOLOTEA Airways";"Spain"
"VOE";"OVD";"2025-11-10";"16:50";"VOE3582";"ASTURIAS (OVD)";"No informado";"Tarde";"3582";"1214";"Asturias Airport";"Aviles";"Spain";"LEAS";"43.5635986328125";"-6.0346198081970215";"416";"1";"Europe/Madrid";"VOLOTEA Airways";"Spain"
"VOE";"OVD";"2025-11-09";"12:05";"VOE3582";"ASTURIAS (OVD)";"En vuelo";"Tarde";"3582";"1214";"Asturias Airport";"Aviles";"Spain";"LEAS";"43.5635986328125";"-6.0346198081970215";"416";"1";"Europe/Madrid";"VOLOTEA Airways";"Spain"
"VOE";"BOD";"2025-11-14";"09:15";"VOE2436";"BURDEOS (BOD)";"No informado";"Mañana";"2436";"1264";"Bordeaux-Mérignac Airport";"Bordeaux";"France";"LFBD";"44.828300476100004";"-0.715556025505";"162";"1";"Europe/Paris";"VOLOTEA Airways";"Spain"
"VOE";"LYS";"2025-11-14";"08:15";"VOE2656";"LYON (LYS)";"No informado";"Mañana";"2656";"1335";"Lyon Saint-Exupéry Airport";"Lyon";"France";"LFLL";"45.725556";"5.081111";"821";"1";"Europe/Paris";"VOLOTEA Airways";"Spain"
"VOE";"BIO";"2025-11-09";"17:25";"VOE3536";"BILBAO (BIO)";"No informado";"Tarde";"3536";"1216";"Bilbao Airport";"Bilbao";"Spain";"LEBB";"43.30110168457031";"-2.9106099605560303";"138";"1";"Europe/Madrid";"VOLOTEA Airways";"Spain"
"VOE";"LYS";"2025-11-10";"11:45";"VOE2656";"LYON (LYS)";"No informado";"Mañana";"2656";"1335";"Lyon Saint-Exupéry Airport";"Lyon";"France";"LFLL";"45.725556";"5.081111";"821";"1";"Europe/Paris";"VOLOTEA Airways";"Spain"
"VOE";"LCG";"2025-11-14";"13:05";"VOE3816";"A CORUÑA (LCG)";"No informado";"Tarde";"3816";"1220";"A Coruña Airport";"La Coruna";"Spain";"LECO";"43.302101";"-8.37726";"326";"1";"Europe/Madrid";"VOLOTEA Airways";"Spain"
"VOE";"BIO";"2025-11-10";"08:40";"VOE3536";"BILBAO (BIO)";"No informado";"Mañana";"3536";"1216";"Bilbao Airport";"Bilbao";"Spain";"LEBB";"43.30110168457031";"-2.9106099605560303";"138";"1";"Europe/Madrid";"VOLOTEA Airways";"Spain"
"VOE";"BOD";"2025-11-16";"10:15";"VOE2436";"BURDEOS (BOD)";"No informado";"Mañana";"2436";"1264";"Bordeaux-Mérignac Airport";"Bordeaux";"France";"LFBD";"44.828300476100004";"-0.715556025505";"162";"1";"Europe/Paris";"VOLOTEA Airways";"Spain"
"VOE";"BIO";"2025-11-14";"17:10";"VOE3536";"BILBAO (BIO)";"No informado";"Tarde";"3536";"1216";"Bilbao Airport";"Bilbao";"Spain";"LEBB";"43.30110168457031";"-2.9106099605560303";"138";"1";"Europe/Madrid";"VOLOTEA Airways";"Spain"
"VOE";"OVD";"2025-11-12";"12:10";"VOE3582";"ASTURIAS (OVD)";"No informado";"Tarde";"3582";"1214";"Asturias Airport";"Aviles";"Spain";"LEAS";"43.5635986328125";"-6.0346198081970215";"416";"1";"Europe/Madrid";"VOLOTEA Airways";"Spain"
"VOE";"LCG";"2025-11-10";"21:10";"VOE3816";"A CORUÑA (LCG)";"No informado";"Noche";"3816";"1220";"A Coruña Airport";"La Coruna";"Spain";"LECO";"43.302101";"-8.37726";"326";"1";"Europe/Madrid";"VOLOTEA Airways";"Spain"
"WMT";"TSR";"2025-11-11";"19:35";"WMT3567";"TIMISOARA (TSR)";"No informado";"Noche";"3567";"1663";"Timişoara Traian Vuia Airport";"Timisoara";"Romania";"LRTR";"45.809898376464844";"21.337900161743164";"348";"2";"Europe/Bucharest";NA;NA
"WMT";"CLJ";"2025-11-10";"20:00";"WMT3411";"CLUJ NAPOCA/SOMESENI (CLJ)";"No informado";"Noche";"3411";"1652";"Cluj-Napoca International Airport";"Cluj-napoca";"Romania";"LRCL";"46.78519821166992";"23.686199188232422";"1036";"2";"Europe/Bucharest";NA;NA
"WMT";"IAS";"2025-11-15";"09:00";"WMT3723";"IASI (IAS)";"No informado";"Mañana";"3723";"1655";"Iaşi Airport";"Iasi";"Romania";"LRIA";"47.17850112915039";"27.6205997467041";"397";"2";"Europe/Bucharest";NA;NA
"WMT";"FCO";"2025-11-09";"20:35";"WMT6045";"ROMA /FIUMICINO (FCO)";"No informado";"Noche";"6045";"1555";"Leonardo da Vinci–Fiumicino Airport";"Rome";"Italy";"LIRF";"41.8002778";"12.2388889";"13";"1";"Europe/Rome";NA;NA
"WMT";"OTP";"2025-11-11";"10:40";"WMT3185";"BUCAREST (OTP)";"No informado";"Mañana";"3185";"1657";"Henri Coandă International Airport";"Bucharest";"Romania";"LROP";"44.5711111";"26.085";"314";"2";"Europe/Bucharest";NA;NA
"WMT";"OTP";"2025-11-16";"09:50";"WMT3185";"BUCAREST (OTP)";"No informado";"Mañana";"3185";"1657";"Henri Coandă International Airport";"Bucharest";"Romania";"LROP";"44.5711111";"26.085";"314";"2";"Europe/Bucharest";NA;NA
"WMT";"MXP";"2025-11-09";"14:10";"WMT6317";"MILAN /MALPENSA (MXP)";"No informado";"Tarde";"6317";"1524";"Malpensa International Airport";"Milano";"Italy";"LIMC";"45.6306";"8.72811";"768";"1";"Europe/Rome";NA;NA
"WMT";"TIA";"2025-11-11";"21:30";"WMT5155";"TIRANA (TIA)";"No informado";"Noche";"5155";"1190";"Tirana International Airport Mother Teresa";"Tirana";"Albania";"LATI";"41.4146995544";"19.7206001282";"126";"1";"Europe/Tirane";NA;NA
"WMT";"FCO";"2025-11-09";"14:40";"WMT6027";"ROMA /FIUMICINO (FCO)";"No informado";"Tarde";"6027";"1555";"Leonardo da Vinci–Fiumicino Airport";"Rome";"Italy";"LIRF";"41.8002778";"12.2388889";"13";"1";"Europe/Rome";NA;NA
"WZZ";"BUD";"2025-11-09";"18:50";"WZZ2385";"BUDAPEST (BUD)";"No informado";"Noche";"2385";"1489";"Budapest Liszt Ferenc International Airport";"Budapest";"Hungary";"LHBP";"47.42976";"19.261093";"495";"1";"Europe/Budapest";"Wizz Air";"Hungary"
"WZZ";"WAW";"2025-11-11";"09:05";"WZZ1337";"VARSOVIA (WAW)";"No informado";"Mañana";"1337";"679";"Warsaw Chopin Airport";"Warsaw";"Poland";"EPWA";"52.1656990051";"20.967100143399996";"362";"1";"Europe/Warsaw";"Wizz Air";"Hungary"
"WZZ";"WAW";"2025-11-15";"09:35";"WZZ1337";"VARSOVIA (WAW)";"No informado";"Mañana";"1337";"679";"Warsaw Chopin Airport";"Warsaw";"Poland";"EPWA";"52.1656990051";"20.967100143399996";"362";"1";"Europe/Warsaw";"Wizz Air";"Hungary"
"WZZ";"KRK";"2025-11-09";"19:35";"WZZ2079";"CRACOVIA (KRK)";"No informado";"Noche";"2079";"669";"Kraków John Paul II International Airport";"Krakow";"Poland";"EPKK";"50.077702";"19.7848";"791";"1";"Europe/Warsaw";"Wizz Air";"Hungary"
"WZZ";"BUD";"2025-11-14";"09:10";"WZZ2385";"BUDAPEST (BUD)";"No informado";"Mañana";"2385";"1489";"Budapest Liszt Ferenc International Airport";"Budapest";"Hungary";"LHBP";"47.42976";"19.261093";"495";"1";"Europe/Budapest";"Wizz Air";"Hungary"
"WZZ";"BUD";"2025-11-10";"09:05";"WZZ2385";"BUDAPEST (BUD)";"No informado";"Mañana";"2385";"1489";"Budapest Liszt Ferenc International Airport";"Budapest";"Hungary";"LHBP";"47.42976";"19.261093";"495";"1";"Europe/Budapest";"Wizz Air";"Hungary"
